zip,都道府県,市区町村,大字,lat,lon,name
6330253,奈良県,宇陀市,榛原萩原,34.53873938,135.95172434,合同会社前田建設 第 88 支店
4670014,愛知県,名古屋市瑞穂区,白羽根町,35.12713203,136.93772605,有限会社阿部運輸 第 27 支店
9860103,宮城県,石巻市,中島,38.53309285,141.33529505,株式会社村上印刷 第 86 支店
893333,北海道,中川郡本別町,山手町,43.12830005,143.61659223,佐藤印刷合同会社 第 91 支店
3220041,栃木県,鹿沼市,三幸町,36.56045386,139.74227487,合同会社青木水産 第 90 支店
7710216,徳島県,板野郡松茂町,長原,34.11331578,134.6006812,有限会社福田食品 第 10 支店
891361,北海道,河西郡中札内村,元大正,42.72052997,143.14487926,有限会社佐藤鉱業 第 28 支店
9272138,石川県,輪島市,門前町堀腰,37.27704255,136.82686481,有限会社伊藤建設 第 10 支店
6408021,和歌山県,和歌山市,西旅籠町,34.23778971,135.17530449,有限会社山本水産 第 83 支店
6128495,京都府,京都市伏見区,久我森の宮町,34.93741434,135.72906683,井上情報株式会社 第 25 支店
8920814,鹿児島県,鹿児島市,本港新町,31.59319984,130.56303313,石井農林株式会社 第 36 支店
3270305,栃木県,佐野市,船越町,36.41496958,139.57288412,山下保険有限会社 第 17 支店
7817105,高知県,室戸市,浮津二番町,33.29249172,134.14400008,森建設有限会社 第 71 支店
8620965,熊本県,熊本市南区,田井島,32.77018731,130.72482894,近藤電気有限会社 第 37 支店
6350035,奈良県,大和高田市,旭南町,34.50901017,135.74749419,株式会社小川印刷 第 63 支店
9980064,山形県,酒田市,大浜,38.93145672,139.8176033,有限会社橋本情報 第 89 支店
9696325,福島県,大沼郡会津美里町,宮後,37.44643311,139.87719755,有限会社山口運輸 第 79 支店
6028267,京都府,京都市上京区,高台院竪町,35.02427432,135.74601198,加藤電気株式会社 第 72 支店
3210632,栃木県,那須烏山市,神長,36.6585086,140.13183406,合同会社岡本ガス 第 13 支店
5150113,三重県,松阪市,出間町,34.58642421,136.60694123,株式会社山口保険 第 38 支店
5260215,滋賀県,長浜市,当目町,35.43943677,136.32741734,松本銀行株式会社 第 28 支店
9902314,山形県,山形市,谷柏,38.20880814,140.28258447,三浦ガス有限会社 第 49 支店
895637,北海道,十勝郡浦幌町,稲穂,42.82216061,143.59548465,有限会社三浦水産 第 89 支店
620055,北海道,札幌市豊平区,月寒東五条,43.03038833,141.41865103,長谷川銀行合同会社 第 92 支店
284424,岩手県,岩手郡岩手町,黒石,39.99304436,141.15576464,山口ガス有限会社 第 99 支店
5140838,三重県,津市,岩田,34.71143854,136.50704293,合同会社木村鉱業 第 23 支店
3700723,群馬県,邑楽郡千代田町,昭和,36.2048233,139.48018614,佐々木食品有限会社 第 79 支店
9102151,福井県,福井市,安波賀中島町,36.01844387,136.29630954,清水ガス有限会社 第 8 支店
3780401,群馬県,利根郡片品村,須賀川,36.75767877,139.23439116,株式会社田中ガス 第 86 支店
9820261,宮城県,仙台市青葉区,折立,38.26425809,140.80764233,小川運輸合同会社 第 15 支店
8420013,佐賀県,神埼市,神埼町本告牟田,33.29860698,130.3646112,合同会社森農林 第 14 支店
9640831,福島県,二本松市,前田,37.56025737,140.43719836,株式会社前田建設 第 1 支店
6310078,奈良県,奈良市,富雄元町,34.69141297,135.73538657,有限会社中村水産 第 55 支店
9300465,富山県,中新川郡上市町,大沢,36.63786584,137.4098987,有限会社高橋建設 第 49 支店
9862112,宮城県,石巻市,後生橋,38.42193243,141.36736172,山田食品有限会社 第 10 支店
4928461,愛知県,稲沢市,井堀北出町,35.23279656,136.76321721,有限会社吉田鉱業 第 71 支店
6600087,兵庫県,尼崎市,平左衛門町,34.69102748,135.37460505,合同会社山口鉱業 第 49 支店
1076018,東京都,港区,赤坂赤坂アークヒルズ・アーク森ビル（１８階）,35.66709712,139.74012485,長谷川水産株式会社 第 61 支店
6790106,兵庫県,加西市,豊倉町,34.90772206,134.86545162,合同会社高橋通信 第 36 支店
9480074,新潟県,十日町市,西浦町,37.13483988,138.75976179,井上鉱業合同会社 第 81 支店
2992508,千葉県,南房総市,丸山平塚,35.11303201,139.98811705,山口鉱業有限会社 第 15 支店
5100815,三重県,四日市市,野田,34.98046773,136.60960196,有限会社山本情報 第 58 支店
360121,青森県,平川市,新屋栄館,40.59784709,140.59795614,株式会社藤原銀行 第 23 支店
9410058,新潟県,糸魚川市,寺町,37.04715295,137.86817872,合同会社山本保険 第 53 支店
9812131,宮城県,伊具郡丸森町,四反田,37.89775532,140.76840763,加藤建設株式会社 第 78 支店
4212109,静岡県,静岡市葵区,福田ケ谷,35.02454827,138.37758657,佐藤運輸合同会社 第 25 支店
9570235,新潟県,新発田市,人橋,38.00316186,139.29424886,田中銀行合同会社 第 80 支店
7400604,山口県,岩国市,本郷町宇塚,34.30481193,132.02288367,山口食品有限会社 第 13 支店
5192164,三重県,多気郡多気町,森荘,34.48280154,136.57794354,合同会社吉田鉱業 第 70 支店
191834,秋田県,大仙市,南外北田黒瀬,39.48718323,140.36924243,有限会社山本電気 第 24 支店
7750302,徳島県,海部郡海陽町,奥浦,33.59177652,134.35095266,合同会社青木水産 第 5 支店
9272275,石川県,輪島市,門前町薄野,37.33706223,136.78171518,株式会社岡本運輸 第 95 支店
9050404,沖縄県,国頭郡今帰仁村,上運天,26.67916307,127.99409243,株式会社森運輸 第 14 支店
891725,北海道,中川郡幕別町,忠類中当,42.55711464,143.39830783,中村銀行合同会社 第 96 支店
6490163,和歌山県,海南市,下津町鰈川,34.09897551,135.14296331,合同会社伊藤通信 第 17 支店
1210012,東京都,足立区,青井（４～６丁目）,35.77600778,139.81769491,株式会社藤井鉱業 第 46 支店
1850013,東京都,国分寺市,西恋ケ窪,35.705192100000005,139.46816866,斎藤運輸有限会社 第 22 支店
160163,秋田県,能代市,袖又,40.18010226,140.0400604,株式会社遠藤ガス 第 67 支店
150361,秋田県,由利本荘市,黒沢,39.28473035,140.0787486,坂本農林有限会社 第 2 支店
3130106,茨城県,常陸太田市,下利員町,36.56084274,140.45588315,株式会社鈴木銀行 第 45 支店
9850072,宮城県,塩竈市,小松崎,38.32315593,141.01898756,村上食品有限会社 第 33 支店
6892531,鳥取県,東伯郡琴浦町,佐崎,35.48334807,133.62589228,小林ガス株式会社 第 89 支店
140714,秋田県,大仙市,大神成,39.54721762,140.64596926,株式会社坂本ガス 第 90 支店
9011203,沖縄県,南城市,大里大城,26.16876264,127.75733609,山田建設合同会社 第 47 支店
150089,秋田県,由利本荘市,鳥田目,39.33627629,140.14860238,佐藤情報株式会社 第 36 支店
3610073,埼玉県,行田市,行田,36.14032567,139.45963021,合同会社佐藤建設 第 98 支店
9592652,新潟県,胎内市,協和町,38.06794871,139.40662802,吉田農林株式会社 第 35 支店
4390001,静岡県,菊川市,富田,34.79326648,138.10220594,合同会社鈴木銀行 第 100 支店
2990264,千葉県,袖ケ浦市,今井,35.44070012,139.97664,合同会社藤井建設 第 81 支店
6168114,京都府,京都市右京区,太秦巽町,35.00561258,135.71407736,有限会社鈴木情報 第 98 支店
9270435,石川県,鳳珠郡能登町,宇出津新港,37.2974204,137.14946153,株式会社岡本建設 第 50 支店
210867,岩手県,一関市,駅前,38.92516256,141.13678576,山田食品株式会社 第 97 支店
4860962,愛知県,春日井市,中町,35.25143652,136.9329339,藤原保険株式会社 第 39 支店
6820374,鳥取県,東伯郡三朝町,曹源寺,35.33954918,133.82903935,有限会社松田ガス 第 89 支店
7891234,高知県,高岡郡佐川町,西組,33.47401928,133.27486872,阿部建設有限会社 第 19 支店
9120152,福井県,大野市,下打波,35.96127375,136.66074239,株式会社鈴木建設 第 5 支店
4442515,愛知県,豊田市,大塚町,35.14930301,137.30460537,山田情報有限会社 第 46 支店
9360032,富山県,滑川市,神明町,36.76822138,137.34017121,小林建設株式会社 第 84 支店
141205,秋田県,仙北市,田沢湖玉川,39.88452013,140.6502711,合同会社坂本建設 第 25 支店
9270433,石川県,鳳珠郡能登町,宇出津,37.31744413,137.15613302,有限会社木村ガス 第 16 支店
8762203,大分県,佐伯市,蒲江楠本浦,32.83146194,131.93783556,株式会社伊藤水産 第 22 支店
6020958,京都府,京都市上京区,油小路西入、元誓願寺通油小路東入、元誓願寺通堀川東入）,35.02850318,135.75305539,鈴木水産有限会社 第 2 支店
6900333,島根県,松江市,鹿島町古浦,35.51708753,132.97537681,合同会社佐々木銀行 第 59 支店
2740063,千葉県,船橋市,習志野台,35.72116043,140.05054506,有限会社小川農林 第 77 支店
280662,岩手県,遠野市,附馬牛町安居台,39.38567205,141.53708437,田中運輸合同会社 第 86 支店
6038334,京都府,京都市北区,大将軍西鷹司町,35.02302411,135.72842279,山本農林有限会社 第 27 支店
4960809,愛知県,津島市,昭和町,35.18235934,136.72779703,山本銀行株式会社 第 69 支店
9270453,石川県,鳳珠郡能登町,鶴町,37.31356891,137.07397581,佐藤食品合同会社 第 29 支店
330123,青森県,三沢市,堀口,40.68455907,141.38081517,青木運輸合同会社 第 81 支店
6752336,兵庫県,加西市,坂元町,34.92413378,134.82005929,田中印刷株式会社 第 1 支店
9271215,石川県,珠洲市,上戸町北方,37.43679492,137.24430307,森建設株式会社 第 38 支店
5720077,大阪府,寝屋川市,点野,34.77716551,135.60462269,岡田ガス有限会社 第 34 支店
5690834,大阪府,高槻市,唐崎,34.81185431,135.61923553,山田印刷有限会社 第 33 支店
8100061,福岡県,福岡市中央区,西公園,33.59718635,130.37445549,株式会社山崎印刷 第 12 支店
6800711,鳥取県,八頭郡若桜町,三倉,35.33002241,134.37813168,佐藤食品株式会社 第 44 支店
6200828,京都府,福知山市,正坂,35.25132398,135.20314236,株式会社村上印刷 第 41 支店
4860845,愛知県,春日井市,瑞穂通,35.24830325,136.96978977,有限会社伊藤水産 第 73 支店
288601,岩手県,久慈市,山形町戸呂町,40.2023386,141.58382189,山口情報有限会社 第 21 支店
3400162,埼玉県,幸手市,下川崎,36.08262455,139.70635133,石川建設有限会社 第 70 支店
6168153,京都府,京都市右京区,太秦面影町,35.01158609,135.70051911,株式会社加藤ガス 第 20 支店
9291327,石川県,羽咋郡宝達志水町,森本,36.78858048,136.75577643,藤井建設有限会社 第 67 支店
4450017,愛知県,西尾市,上永良町,34.87515887,137.108919,株式会社山口銀行 第 97 支店
9501225,新潟県,新潟市南区,七軒町,37.77160523,139.01251947,合同会社斉藤食品 第 58 支店
981605,北海道,紋別郡興部町,興部（緑ケ丘）,44.4669341,143.12683325,近藤食品合同会社 第 41 支店
8550885,長崎県,島原市,白谷町,32.75022275,130.34730099,林銀行合同会社 第 24 支店
182400,秋田県,山本郡三種町,以下に掲載がない場合,40.10162598,140.00474808,木村鉱業株式会社 第 100 支店
8100002,福岡県,福岡市中央区,西中洲,33.59148633,130.40489239,有限会社前田水産 第 35 支店
8931602,鹿児島県,鹿屋市,串良町有里,31.41436906,130.92748684,山下食品有限会社 第 19 支店
6150051,京都府,京都市右京区,西院安塚町,35.00167707,135.72115071,合同会社佐藤保険 第 42 支店
6020056,京都府,京都市上京区,北舟橋町,35.0312107,135.75179939,清水建設合同会社 第 99 支店
6692447,兵庫県,篠山市,西荘,35.06704196,135.27056105,高橋運輸合同会社 第 83 支店
8000002,福岡県,北九州市門司区,二タ松町,33.92786972,130.94599571,橋本印刷合同会社 第 84 支店
2740061,千葉県,船橋市,古和釜町,35.74286461,140.05715945,小林運輸有限会社 第 99 支店
6128395,京都府,京都市伏見区,下鳥羽東芹川町,34.9419297,135.75042156,株式会社高橋銀行 第 21 支店
9697312,福島県,河沼郡柳津町,久保田,37.46290715,139.72329742,鈴木ガス有限会社 第 75 支店
4850034,愛知県,小牧市,市之久田,35.26956635,136.91871443,株式会社伊藤通信 第 17 支店
5013846,岐阜県,関市,住吉町,35.48367374,136.92108922,株式会社吉田水産 第 60 支店
9100813,福井県,福井市,中新田町,36.1029686,136.25757397,斎藤運輸株式会社 第 73 支店
6680206,兵庫県,豊岡市,出石町福居,35.490109600000004,134.84499249,有限会社渡辺ガス 第 87 支店
4860961,愛知県,春日井市,春日井上ノ町,35.25471413,136.9318508,合同会社小川運輸 第 83 支店
5120925,三重県,四日市市,菅原町,34.99453015,136.5544584,井上電気合同会社 第 68 支店
6692462,兵庫県,篠山市,真南条上,35.03954639,135.20505134,木村食品株式会社 第 24 支店
7510864,山口県,下関市,伊倉町,34.00383439,130.92933106,合同会社鈴木通信 第 87 支店
4228053,静岡県,静岡市駿河区,西中原,34.95801815,138.37976861,藤原通信合同会社 第 57 支店
294377,岩手県,奥州市,衣川区後山,39.02816828,141.01613759,有限会社木村食品 第 43 支店
9870444,宮城県,登米市,南方町柳沢,38.66028069,141.11904303,小林電気株式会社 第 89 支店
9392601,富山県,富山市,婦中町小長沢,36.66529039,137.13124236,有限会社山本印刷 第 91 支店
5030896,岐阜県,大垣市,高橋町,35.36260785,136.62294113,池田電気有限会社 第 62 支店
6810021,鳥取県,岩美郡岩美町,長谷,35.55569008,134.40023972,株式会社佐藤建設 第 87 支店
6390217,奈良県,北葛城郡上牧町,中筋出作,34.55409853,135.70732706,斉藤運輸有限会社 第 23 支店
7420011,山口県,柳井市,新市沖,33.96283244,132.11758437,山田運輸有限会社 第 95 支店
8221201,福岡県,田川郡福智町,金田,33.67961493,130.77967941,岡本建設株式会社 第 56 支店
9610066,福島県,白河市,羅漢前,37.12699056,140.22861244,松本食品株式会社 第 22 支店
9330961,富山県,高岡市,佐加野,36.75602914,136.97742458,有限会社加藤銀行 第 25 支店
5610863,大阪府,豊中市,広田町,34.78172001,135.48371598,石川銀行合同会社 第 80 支店
4506242,愛知県,名古屋市中村区,名駅ミッドランドスクエア（高層棟）（４２階）,35.17012474,136.88527301,合同会社山崎情報 第 85 支店
6830014,鳥取県,米子市,永江,35.39611957,133.36993547,加藤情報有限会社 第 30 支店
5430014,大阪府,大阪市天王寺区,玉造元町,34.67193689,135.53153781,後藤銀行合同会社 第 72 支店
6200005,京都府,福知山市,印内,35.33097726,135.15757821,斎藤食品株式会社 第 79 支店
3560059,埼玉県,ふじみ野市,桜ケ丘,35.8524378,139.50658827,遠藤ガス株式会社 第 21 支店
9600655,福島県,伊達市,保原町宮内町,37.82765304,140.54689928,佐々木電気株式会社 第 14 支店
270364,岩手県,宮古市,田老新田,39.76136648,141.95827978,中島印刷有限会社 第 91 支店
9998224,山形県,酒田市,前川,38.94521,139.91273241,佐藤電気合同会社 第 87 支店
5830001,大阪府,藤井寺市,川北,34.58583172,135.61203967,加藤情報有限会社 第 38 支店
8710122,大分県,中津市,２８０３－６９、２８０３－７７、２８０３－９１、２８１８、２８２８、,33.55961571,131.19545988,株式会社斉藤建設 第 82 支店
3193536,茨城県,久慈郡大子町,田野沢,36.79810229,140.27578874,合同会社松本食品 第 54 支店
286847,岩手県,二戸市,浄法寺町岩渕,40.18982502,141.16987096,石川鉱業有限会社 第 5 支店
611443,北海道,恵庭市,栄恵町,42.87974872,141.58014377,岡田建設有限会社 第 92 支店
8700030,大分県,大分市,三芳,33.22622157,131.584178,有限会社田中運輸 第 79 支店
6308231,奈良県,奈良市,本子守町,34.68119738,135.8257121,中村鉱業合同会社 第 76 支店
286855,岩手県,二戸市,浄法寺町浄法寺,40.20607276,141.094947,近藤水産合同会社 第 90 支店
6038442,京都府,京都市北区,紫竹西野山東町,35.0501165,135.74192133,山本印刷合同会社 第 44 支店
2870056,千葉県,香取市,飯島,35.91211425,140.47425256,田中情報株式会社 第 97 支店
2770942,千葉県,柏市,高南台,35.80455416,139.99370643,吉田銀行合同会社 第 83 支店
980342,北海道,上川郡剣淵町,藤本町,44.132251,142.3677805,渡辺電気株式会社 第 59 支店
3111241,茨城県,ひたちなか市,赤坂,36.35497926,140.59774903,合同会社小林通信 第 28 支店
9320855,富山県,小矢部市,川開新,36.62331876,136.822868,合同会社山下建設 第 66 支店
9393536,富山県,富山市,水橋金尾新,36.71753788,137.29639114,有限会社佐々木農林 第 44 支店
6158235,京都府,京都市西京区,御陵内町,34.97930286,135.69140523,株式会社斎藤銀行 第 23 支店
5250000,滋賀県,草津市,以下に掲載がない場合,35.01313365,135.95993556,株式会社橋本運輸 第 41 支店
380101,青森県,平川市,碇ケ関雷林,40.47073749,140.63146686,斎藤食品合同会社 第 72 支店
5080000,岐阜県,中津川市,以下に掲載がない場合,35.48754757,137.500509,合同会社鈴木印刷 第 77 支店
5316110,大阪府,大阪市北区,大淀中梅田スカイビルタワーウエスト（１０階）,34.70531993,135.4897206,有限会社高橋建設 第 32 支店
3702321,群馬県,富岡市,岡本,36.23257631,138.89141103,山田ガス株式会社 第 43 支店
9390304,富山県,射水市,小杉白石（小白石）,36.72648269,137.13322201,中村ガス合同会社 第 61 支店
6695362,兵庫県,豊岡市,日高町芝,35.46505167,134.72051126,佐藤運輸合同会社 第 20 支店
9695344,福島県,南会津郡下郷町,沢田,37.22974512,139.86437922,有限会社林銀行 第 8 支店
9890263,宮城県,白石市,柳川原,38.01445433,140.62683057,合同会社前田農林 第 40 支店
7992447,愛媛県,松山市,佐古,33.94094496,132.78957625,佐藤農林有限会社 第 47 支店
3270304,栃木県,佐野市,御神楽町,36.43757622,139.55605764,有限会社高橋電気 第 11 支店
9920057,山形県,米沢市,成島町,37.92057862,140.08917827,青木水産株式会社 第 7 支店
6480133,和歌山県,伊都郡九度山町,東郷,34.25851262,135.59416847,佐藤建設株式会社 第 66 支店
9300862,富山県,富山市,有沢,36.68426151,137.19274816,株式会社山崎通信 第 57 支店
9271465,石川県,珠洲市,三崎町二本松,37.45966279,137.31475849,近藤情報有限会社 第 20 支店
7700051,徳島県,徳島市,北島田町,34.08746252,134.51382929,藤原情報株式会社 第 62 支店
9580866,新潟県,村上市,村上,38.22969331,139.47688541,合同会社林食品 第 99 支店
7808015,高知県,高知市,百石町,33.54745123,133.54328866,木村電気株式会社 第 40 支店
9870414,宮城県,登米市,南方町松葉,38.65890582,141.17395719,有限会社田中銀行 第 26 支店
5010534,岐阜県,揖斐郡大野町,下座倉,35.41207538,136.63224285,有限会社山下通信 第 90 支店
9220316,石川県,加賀市,松山町,36.31452279,136.39002792,前田建設合同会社 第 76 支店
984468,北海道,天塩郡豊富町,落合（４４６８番地）,45.13911688,141.68676247,合同会社石井銀行 第 84 支店
9300156,富山県,富山市,山本,36.66694153,137.09463819,株式会社岡田電気 第 44 支店
1110052,東京都,台東区,柳橋,35.6975109,139.78862313,合同会社佐藤電気 第 41 支店
9498602,新潟県,十日町市,上組,37.18946681,138.80255285,株式会社加藤通信 第 93 支店
4400834,愛知県,豊橋市,飯村北,34.74727207,137.42367186,佐藤電気株式会社 第 59 支店
6430602,和歌山県,有田郡有田川町,杉野原,34.11508035,135.51389893,鈴木水産有限会社 第 86 支店
8301121,福岡県,久留米市,北野町十郎丸,33.34768604,130.57322732,山本農林合同会社 第 10 支店
230101,岩手県,奥州市,水沢区黒石町,39.09225863,141.21219821,石井建設有限会社 第 80 支店
8280034,福岡県,豊前市,森久,33.60243501,131.14724803,有限会社中村食品 第 31 支店
9690402,福島県,岩瀬郡鏡石町,北町,37.23703932,140.37229658,三浦ガス株式会社 第 1 支店
861025,北海道,標津郡中標津町,東二十五条南,43.55963381,144.99747004,山田保険合同会社 第 57 支店
4250051,静岡県,焼津市,田尻北,34.83762945,138.33130431,橋本電気合同会社 第 89 支店
368053,青森県,弘前市,和泉,40.61083177,140.49437454,山本鉱業有限会社 第 20 支店
40811,北海道,札幌市清田区,美しが丘一条,42.98370873,141.45845097,鈴木食品有限会社 第 50 支店
4070321,山梨県,北杜市,須玉町上津金,35.86242084,138.4497353,合同会社阿部食品 第 87 支店
2208158,神奈川県,横浜市西区,みなとみらいランドマークタワー（５８階）,35.4546263,139.63150753,有限会社中村通信 第 68 支店
3130021,茨城県,常陸太田市,大森町,36.52191456,140.58689021,松本農林合同会社 第 32 支店
4840053,愛知県,犬山市,石畑,35.34753294,136.97685439,株式会社鈴木保険 第 20 支店
7910131,愛媛県,松山市,水口町,33.90711687,132.86035933,合同会社西村保険 第 6 支店
6712578,兵庫県,宍粟市,山崎町元山崎,35.00791951,134.53948094,西村銀行合同会社 第 78 支店
3390005,埼玉県,さいたま市岩槻区,東岩槻,35.96240105,139.71350573,有限会社木村保険 第 99 支店
270035,岩手県,宮古市,花輪,39.60170427,141.90677317,橋本通信有限会社 第 6 支店
6693411,兵庫県,丹波市,春日町朝日,35.16583873,135.08433486,山崎印刷有限会社 第 63 支店
30023,北海道,札幌市白石区,南郷通（北）,43.04238981,141.4087892,松本鉱業株式会社 第 14 支店
9110844,福井県,勝山市,鹿谷町西遅羽口,36.04802563,136.46891583,木村銀行株式会社 第 81 支店
6600062,兵庫県,尼崎市,浜田町,34.72880579,135.39892968,合同会社佐藤農林 第 59 支店
8660874,熊本県,八代市,横手本町,32.51203777,130.61219866,渡辺農林株式会社 第 20 支店
8320035,福岡県,柳川市,東魚屋町,33.16600379,130.40977511,松本農林株式会社 第 53 支店
1910055,東京都,日野市,西平山,35.65191569,139.36774007,山崎鉱業合同会社 第 13 支店
7293516,広島県,神石郡神石高原町,古川,34.82260563,133.15854034,有限会社近藤通信 第 10 支店
200723,岩手県,滝沢市,篠木綾織,39.71510208,141.07315912,合同会社斎藤銀行 第 12 支店
5280034,滋賀県,甲賀市,水口町日電,34.97628274,136.16552462,吉田情報有限会社 第 91 支店
3240024,栃木県,大田原市,福原,36.79783839,140.06405801,小川通信合同会社 第 24 支店
5092507,岐阜県,下呂市,萩原町野上,35.90873995,137.1903092,渡辺鉱業合同会社 第 28 支店
5010225,岐阜県,瑞穂市,祖父江,35.37414481,136.68559211,山口電気有限会社 第 10 支店
5306019,大阪府,大阪市北区,天満橋ＯＡＰタワー（１９階）,34.69993251,135.51981448,小川ガス株式会社 第 29 支店
7370074,広島県,呉市,西鹿田,34.2467605,132.58156256,山田鉱業株式会社 第 12 支店
7193203,岡山県,真庭市,富尾,35.06445353,133.74795434,佐藤農林株式会社 第 86 支店
6078344,京都府,京都市山科区,西野大手先町,34.98374321,135.81406351,中島保険有限会社 第 100 支店
8912103,鹿児島県,垂水市,市木,31.50324703,130.72494254,井上電気有限会社 第 4 支店
7990413,愛媛県,四国中央市,中曽根町,33.96527352,133.55103349,三浦印刷有限会社 第 100 支店
7094247,岡山県,美作市,山城,35.0121074,134.24271132,株式会社山口ガス 第 64 支店
7820034,高知県,香美市,土佐山田町宝町,33.60227229,133.68329437,松田鉱業有限会社 第 90 支店
3220603,栃木県,栃木市,西方町本郷,36.44669412,139.73510675,石川ガス有限会社 第 55 支店
4650063,愛知県,名古屋市名東区,新宿,35.15158894,137.0114474,合同会社坂本情報 第 53 支店
130485,秋田県,横手市,大雄下新処,39.32399681,140.45678227,西村銀行有限会社 第 82 支店
9970755,山形県,鶴岡市,砂谷,38.65885084,139.77649522,合同会社小林通信 第 17 支店
9391864,富山県,南砺市,城端（大工町）,36.51420907,136.90164822,有限会社山田農林 第 38 支店
9870106,宮城県,遠田郡涌谷町,六軒町,38.54470383,141.12496499,有限会社佐藤鉱業 第 78 支店
130452,秋田県,横手市,大雄大関,39.34015106,140.47393638,合同会社林建設 第 17 支店
9895624,宮城県,栗原市,志波姫南堀口,38.73702754,141.03650234,渡辺電気合同会社 第 87 支店
9270551,石川県,鳳珠郡能登町,明野,37.31836768,137.22169085,吉田運輸有限会社 第 91 支店
9610085,福島県,白河市,町田,37.13715697,140.20136635,佐々木保険合同会社 第 10 支店
1631028,東京都,新宿区,西新宿新宿パークタワー（２８階）,35.68559779,139.69054162,株式会社藤原鉱業 第 26 支店
286944,岩手県,二戸市,浄法寺町飛鳥,40.18809745,141.17027788,株式会社佐々木保険 第 85 支店
6561315,兵庫県,洲本市,五色町鮎原宇谷,34.38741264,134.81541442,合同会社村上農林 第 64 支店
4380078,静岡県,磐田市,久保町,34.72304993,137.84797883,中川ガス有限会社 第 33 支店
5300045,大阪府,大阪市北区,天神西町,34.69489978,135.51010235,合同会社藤原農林 第 12 支店
5153533,三重県,津市,美杉町石名原,34.51022352,136.24142043,吉田情報株式会社 第 1 支店
9040023,沖縄県,沖縄市,久保田,26.32377044,127.79598401,株式会社佐々木運輸 第 58 支店
5960806,大阪府,岸和田市,摩湯町,34.46563842,135.43357601,後藤情報株式会社 第 48 支店
5290503,滋賀県,長浜市,余呉町奥川並,35.62609996,136.26048886,合同会社山本電気 第 55 支店
9701152,福島県,いわき市,好間町中好間,37.05828343,140.85062067,鈴木銀行株式会社 第 8 支店
6158135,京都府,京都市西京区,樫原江ノ本町,34.97104168,135.69466789,合同会社田中電気 第 71 支店
381213,青森県,南津軽郡藤崎町,徳下,40.66820819,140.55644327,合同会社中川建設 第 65 支店
7793407,徳島県,吉野川市,山川町新田谷,34.05285674,134.240673,合同会社井上鉱業 第 17 支店
3210902,栃木県,宇都宮市,柳田町,36.56812582,139.96093644,中村電気株式会社 第 64 支店
9635662,福島県,東白川郡棚倉町,岡田,37.01232819,140.4355573,阿部保険合同会社 第 33 支店
3771523,群馬県,吾妻郡嬬恋村,芦生田,36.53327278,138.56155838,有限会社吉田通信 第 36 支店
4120006,静岡県,御殿場市,中畑,35.3338063,138.82303149,伊藤建設合同会社 第 48 支店
3240058,栃木県,大田原市,紫塚,36.87775572,140.01707898,株式会社田中ガス 第 34 支店
5095142,岐阜県,土岐市,泉町久尻,35.37483066,137.16561406,藤原電気有限会社 第 13 支店
6050973,京都府,京都市東山区,泉涌寺門前町,34.98273249,135.77430819,有限会社渡辺通信 第 91 支店
730405,北海道,歌志内市,神威,43.50474916,142.02716196,株式会社小林電気 第 46 支店
1076027,東京都,港区,赤坂赤坂アークヒルズ・アーク森ビル（２７階）,35.66709712,139.74012485,有限会社田中銀行 第 41 支店
4240104,静岡県,静岡市清水区,草ケ谷,35.05237602,138.48636845,松本水産株式会社 第 50 支店
394102,青森県,上北郡横浜町,浜田,41.13937055,141.27643529,山崎運輸合同会社 第 2 支店
9872244,宮城県,栗原市,築館西小山,38.72730311,141.01680498,有限会社中村農林 第 9 支店
4928144,愛知県,稲沢市,小池,35.25008162,136.8129863,株式会社鈴木ガス 第 100 支店
8691501,熊本県,阿蘇郡南阿蘇村,両併,32.81220377,131.09672945,木村情報株式会社 第 21 支店
5210325,滋賀県,米原市,藤川,35.39532488,136.42428887,有限会社斉藤印刷 第 67 支店
1100000,東京都,台東区,以下に掲載がない場合,35.71260675,139.77999506,株式会社山本ガス 第 57 支店
6920732,島根県,安来市,広瀬町梶福留,35.24645582,133.1502224,株式会社池田保険 第 62 支店
2892324,千葉県,香取郡多古町,川島,35.76759943,140.5231506,有限会社山口水産 第 13 支店
6028168,京都府,京都市上京区,弁天町,35.02209758,135.74359335,株式会社渡辺運輸 第 18 支店
370033,青森県,五所川原市,鎌谷町,40.80626581,140.44838785,佐藤農林合同会社 第 96 支店
6038117,京都府,京都市北区,紫竹上高才町,35.05136561,135.75310128,株式会社渡辺水産 第 33 支店
5130059,三重県,鈴鹿市,林崎町,34.88782475,136.60444099,株式会社加藤保険 第 59 支店
2500034,神奈川県,小田原市,板橋,35.24883162,139.13959299,伊藤情報株式会社 第 28 支店
3680043,埼玉県,秩父市,中町,35.99453172,139.07920935,中村保険有限会社 第 72 支店
9190632,福井県,あわら市,春宮,36.21688258,136.23071908,山崎運輸有限会社 第 93 支店
9601631,福島県,相馬郡飯舘村,松塚,37.68694685,140.71999753,加藤情報有限会社 第 22 支店
9503361,新潟県,新潟市北区,新井郷,37.91132527,139.18789681,木村電気有限会社 第 35 支店
2208143,神奈川県,横浜市西区,みなとみらいランドマークタワー（４３階）,35.4546263,139.63150753,清水ガス株式会社 第 28 支店
6752414,兵庫県,加西市,馬渡谷町,34.9506105,134.89925353,田中鉱業有限会社 第 64 支店
8680034,熊本県,人吉市,七日町,32.21527634,130.76624301,渡辺建設有限会社 第 2 支店
8720701,大分県,宇佐市,安心院町楢本,33.41960784,131.3831422,有限会社鈴木食品 第 42 支店
8540026,長崎県,諫早市,東本町,32.84448419,130.05771258,井上ガス合同会社 第 40 支店
2200063,神奈川県,横浜市西区,元久保町,35.44493635,139.60728515,池田水産株式会社 第 11 支店
6900033,島根県,松江市,大庭町,35.42500747,133.0838218,高橋銀行株式会社 第 63 支店
8080113,福岡県,北九州市若松区,払川,33.90029432,130.72172137,伊藤運輸合同会社 第 81 支店
3000875,茨城県,土浦市,中荒川沖町,36.03314911,140.16684404,合同会社高橋銀行 第 36 支店
6794321,兵庫県,たつの市,新宮町段之上,34.90957125,134.54314236,有限会社鈴木ガス 第 2 支店
5152503,三重県,津市,一志町日置,34.66084263,136.44361636,合同会社小川ガス 第 9 支店
286976,岩手県,二戸市,浄法寺町樋口,40.16098631,141.11837848,合同会社西村情報 第 40 支店
980102,北海道,上川郡和寒町,大成,44.06436921,142.40884029,有限会社斉藤印刷 第 60 支店
5008185,岐阜県,岐阜市,元町,35.4160888,136.76249853,斎藤印刷合同会社 第 97 支店
2250024,神奈川県,横浜市青葉区,市ケ尾町,35.54817768,139.54060967,有限会社佐藤電気 第 99 支店
5710014,大阪府,門真市,千石西町,34.72460426,135.60609923,合同会社佐藤水産 第 25 支店
3111122,茨城県,水戸市,秋成町,36.30961493,140.53132027,株式会社山口食品 第 40 支店
3080842,茨城県,筑西市,一本松,36.29445818,139.9691714,合同会社藤井情報 第 15 支店
7260011,広島県,府中市,広谷町,34.57137403,133.25939123,長谷川建設合同会社 第 77 支店
5798046,大阪府,東大阪市,昭和町,34.66334947,135.63728165,有限会社小林鉱業 第 6 支店
7540023,山口県,山口市,小郡前田町,34.08569007,131.39650325,藤井食品合同会社 第 89 支店
5150046,三重県,松阪市,南虹が丘町,34.53661456,136.55526439,有限会社中川運輸 第 69 支店
9792172,福島県,南相馬市,小高区南鳩原,37.57262338,140.95147695,有限会社小林建設 第 87 支店
9991354,山形県,西置賜郡小国町,幸町,38.0675441,139.7409317,吉田通信有限会社 第 18 支店
8740023,大分県,別府市,上人ケ浜町,33.31718148,131.50024066,佐藤情報合同会社 第 70 支店
7960907,愛媛県,西予市,三瓶町朝立,33.39063129,132.43116579,有限会社佐々木食品 第 64 支店
1960011,東京都,昭島市,上川原町,35.70773682,139.35982097,松田水産合同会社 第 53 支店
610500,北海道,樺戸郡月形町,以下に掲載がない場合,43.33843569,141.66945102,合同会社田中通信 第 5 支店
4328017,静岡県,浜松市中区,三組町,34.70885922,137.72092578,有限会社藤原情報 第 6 支店
3950032,長野県,飯田市,主税町,35.51453661,137.82800623,山田電気有限会社 第 75 支店
360213,青森県,平川市,新屋町道ノ下,40.61137493,140.5756809,山下鉱業有限会社 第 69 支店
7800086,高知県,高知市,海老ノ丸,33.56327572,133.56694966,木村保険合同会社 第 58 支店
7210953,広島県,福山市,一文字町,34.46969378,133.40778655,有限会社鈴木水産 第 7 支店
7993741,愛媛県,宇和島市,吉田町白浦,33.31269403,132.53100653,株式会社藤田情報 第 11 支店
9696254,福島県,大沼郡会津美里町,荻窪,37.44697571,139.80554011,山本鉱業合同会社 第 20 支店
8960052,鹿児島県,いちき串木野市,上名,31.72540848,130.28787363,太田水産有限会社 第 18 支店
9872261,宮城県,栗原市,築館久伝,38.73667504,141.01226781,石川銀行有限会社 第 29 支店
9300805,富山県,富山市,湊入船町,36.70860648,137.21344589,株式会社岡田保険 第 46 支店
70822,北海道,札幌市東区,東雁来二条,43.07999567,141.4080104,阿部食品株式会社 第 94 支店
3490226,埼玉県,白岡市,岡泉,36.00809803,139.69049956,福田保険株式会社 第 26 支店
4928014,愛知県,稲沢市,赤池北町,35.27124427,136.82241887,山口印刷合同会社 第 74 支店
2500403,神奈川県,足柄下郡箱根町,底倉,35.24397935,139.05589676,石川通信合同会社 第 53 支店
9592647,新潟県,胎内市,北本町,38.05650003,139.4035751,松本建設合同会社 第 25 支店
8891111,宮崎県,日向市,美々津町,32.32642459,131.59833045,有限会社小林ガス 第 47 支店
711541,北海道,上川郡東神楽町,１１号,43.694951200000006,142.4370108,佐々木保険株式会社 第 35 支店
5060046,岐阜県,高山市,下之切町,36.15191778,137.20444424,合同会社山本建設 第 2 支店
9640824,福島県,二本松市,諏訪原,37.56228289,140.4332217,有限会社岡本通信 第 8 支店
5690823,大阪府,高槻市,芝生町,34.82498853,135.61054837,有限会社山田電気 第 4 支店
7780013,徳島県,三好市,池田町シンヤマ,34.02291514,133.79616729,株式会社加藤印刷 第 5 支店
7470004,山口県,防府市,牟礼,34.06096099,131.60991489,合同会社小林農林 第 82 支店
6293578,京都府,京丹後市,久美浜町畑,35.54783759,134.92742725,近藤運輸有限会社 第 4 支店
990101,北海道,紋別郡遠軽町,下白滝,43.93916084,143.27348821,中村農林株式会社 第 3 支店
170043,秋田県,大館市,有浦,40.28302705,140.56674153,株式会社山田農林 第 18 支店
411612,北海道,函館市,安浦町,41.91244337,140.94781334,株式会社田中運輸 第 95 支店
7712106,徳島県,美馬市,西荒川、沼田島、東荒川、南荒川、南東原、妙見、山嫁坂）,34.05336359,134.04765875,田中印刷合同会社 第 16 支店
9392748,富山県,富山市,婦中町田屋新,36.6301083,137.15456938,井上印刷株式会社 第 9 支店
920203,北海道,網走郡津別町,達美,43.71772120000001,144.0225609,鈴木運輸株式会社 第 33 支店
9814202,宮城県,加美郡加美町,下多田川,38.62827804,140.80046456,小林情報有限会社 第 19 支店
9280325,石川県,鳳珠郡能登町,神和住,37.34329327,137.06289842,有限会社鈴木建設 第 12 支店
7320024,広島県,広島市東区,中山南,34.40693267,132.4977747,株式会社阿部保険 第 67 支店
4901423,愛知県,弥富市,海屋,35.10205351,136.79144037,合同会社伊藤通信 第 26 支店
9290321,石川県,河北郡津幡町,加茂,36.68891394,136.73891799,有限会社鈴木運輸 第 58 支店
7510847,山口県,下関市,古屋町,33.99772395,130.92397745,有限会社山本運輸 第 21 支店
9370855,富山県,魚津市,川原,36.79161032,137.4042781,斎藤通信株式会社 第 80 支店
8190385,福岡県,福岡市西区,元岡,33.59622691,130.22413359,合同会社山本運輸 第 98 支店
4580824,愛知県,名古屋市緑区,鳴海町（有松裏）,35.06807852,136.97449821,清水農林合同会社 第 21 支店
3860012,長野県,上田市,中央,36.40163065,138.25614617,伊藤鉱業有限会社 第 61 支店
7360013,広島県,安芸郡海田町,東,34.36560918,132.55825405,合同会社橋本運輸 第 92 支店
7993421,愛媛県,大洲市,戒川甲,33.59608153,132.53458672,合同会社高橋通信 第 83 支店
3004522,茨城県,筑西市,向上野,36.20899594,140.03133698,株式会社鈴木鉱業 第 23 支店
4100882,静岡県,沼津市,町方町,35.09765501,138.85724249,小林電気有限会社 第 18 支店
2880056,千葉県,銚子市,新生町,35.73380678,140.83632496,有限会社森銀行 第 16 支店
9330318,富山県,高岡市,池田,36.73708292,136.96023403,石井保険合同会社 第 90 支店
1086215,東京都,港区,港南品川インターシティＣ棟（１５階）,35.62543081,139.74206233,株式会社鈴木運輸 第 38 支店
4000033,山梨県,甲府市,寿町,35.65789993,138.5599958,有限会社山田水産 第 88 支店
2740822,千葉県,船橋市,飯山満町,35.7117629,140.02425061,合同会社松本保険 第 74 支店
7720000,徳島県,鳴門市,以下に掲載がない場合,34.17256177,134.60878594,鈴木情報株式会社 第 19 支店
4860911,愛知県,春日井市,西高山町,35.25586373,136.94847023,有限会社三浦ガス 第 53 支店
6078227,京都府,京都市山科区,勧修寺下ノ茶屋町,34.95984503,135.8082852,有限会社松本鉱業 第 15 支店
5270024,滋賀県,東近江市,札の辻,35.103925700000005,136.21585792,合同会社岡本運輸 第 96 支店
3001316,茨城県,稲敷郡河内町,布鎌,35.87172883,140.26369836,合同会社山田運輸 第 48 支店
185756,秋田県,大館市,下川原,40.24122785,140.52972771,株式会社青木建設 第 79 支店
570022,北海道,浦河郡浦河町,昌平町,42.17060774,142.77381222,有限会社中川運輸 第 51 支店
9862261,宮城県,牡鹿郡女川町,女川浜,38.4643969,141.4333842,合同会社小川運輸 第 35 支店
3702136,群馬県,高崎市,吉井町小棚,36.27180088,138.95438278,加藤銀行有限会社 第 93 支店
3501113,埼玉県,川越市,田町,35.91434158,139.47617768,井上銀行有限会社 第 2 支店
4211403,静岡県,静岡市葵区,日向,35.09508709,138.23283703,有限会社山本農林 第 27 支店
4102141,静岡県,伊豆の国市,韮山山木,35.05620394,138.97345604,近藤建設合同会社 第 30 支店
6200901,京都府,福知山市,上佐々木,35.39757334,135.03951257,藤田印刷合同会社 第 14 支店
6562307,兵庫県,淡路市,南鵜崎,34.573474700000006,135.01935062,木村農林有限会社 第 20 支店
900817,北海道,北見市,常盤町,43.79395785,143.88970773,合同会社中村食品 第 57 支店
283316,岩手県,紫波郡紫波町,佐比内,39.50881499,141.24983079,山崎ガス有限会社 第 16 支店
6148112,京都府,八幡市,川口馬屋尻,34.87778619,135.71958546,近藤印刷有限会社 第 43 支店
5008435,岐阜県,岐阜市,宮北町,35.39816408,136.76744462,佐藤鉱業株式会社 第 44 支店
2892135,千葉県,匝瑳市,高野,35.68142014,140.52913409,合同会社高橋農林 第 3 支店
6700833,兵庫県,姫路市,大善町,34.83027297,134.7098873,有限会社長谷川保険 第 39 支店
4890879,愛知県,瀬戸市,瘤木町,35.21375811,137.08225026,斎藤水産株式会社 第 65 支店
9996853,山形県,酒田市,石名坂,38.88372536,139.94116278,長谷川建設合同会社 第 54 支店
4928157,愛知県,稲沢市,井之口柿ノ木町,35.23972294,136.82204241,木村情報株式会社 第 33 支店
4750927,愛知県,半田市,北二ツ坂町,34.89497074,136.91142078,合同会社渡辺農林 第 89 支店
3990424,長野県,上伊那郡辰野町,赤羽,35.969073,138.00139446,合同会社渡辺鉱業 第 61 支店
6650841,兵庫県,宝塚市,御殿山,34.81730266,135.3457507,有限会社石川建設 第 83 支店
5440014,大阪府,大阪市生野区,巽東,34.64797274,135.55753797,松田運輸株式会社 第 99 支店
5740064,大阪府,大東市,御領,34.71840898,135.61377362,合同会社石井農林 第 60 支店
9850852,宮城県,多賀城市,山王,38.2962416,140.97295181,有限会社中島水産 第 19 支店
482331,北海道,余市郡仁木町,２１０、２５４、２６７、３７２、４４４、４６９番地）,43.06626368,140.70934309,合同会社坂本水産 第 59 支店
6840063,鳥取県,境港市,誠道町,35.51499224,133.23520421,阿部銀行有限会社 第 26 支店
8771352,大分県,日田市,石松町,33.33825741,130.9600063,田中農林株式会社 第 68 支店
9872044,宮城県,栗原市,高清水堤下,38.66882014,140.98327017,鈴木建設株式会社 第 58 支店
8540056,長崎県,諫早市,土師野尾町,32.81251968,130.02368675,合同会社中村保険 第 86 支店
891354,北海道,河西郡中札内村,新札内,42.68118711,143.08568961,伊藤保険株式会社 第 42 支店
3210967,栃木県,宇都宮市,錦,36.5715129,139.89466829,佐藤建設有限会社 第 97 支店
440201,北海道,虻田郡喜茂別町,幸町,42.79549191,140.95005332,合同会社鈴木運輸 第 95 支店
6700008,兵庫県,姫路市,橋之町,34.84139445,134.70062887,有限会社田中建設 第 44 支店
2130001,神奈川県,川崎市高津区,溝口,35.60442398,139.61277777,有限会社加藤情報 第 16 支店
790300,北海道,空知郡奈井江町,以下に掲載がない場合,43.42510605,141.88278833,株式会社池田建設 第 28 支店
391506,青森県,三戸郡五戸町,熊野林,40.54001176,141.32186018,吉田電気株式会社 第 29 支店
2892706,千葉県,旭市,下永井,35.69440457,140.73156744,株式会社清水情報 第 89 支店
9910006,山形県,寒河江市,夕カヘ,38.40285557,140.27895839,吉田通信有限会社 第 54 支店
7940035,愛媛県,今治市,枝堀町,34.05977614,133.00968686,有限会社橋本運輸 第 70 支店
2920404,千葉県,君津市,賀恵渕,35.32855204,140.04627548,村上ガス有限会社 第 26 支店
8700032,大分県,大分市,住吉町,33.24481076,131.60437573,佐々木情報有限会社 第 34 支店
7891403,高知県,高岡郡中土佐町,大野見久万秋,33.3494652,133.14374722,山田電気合同会社 第 99 支店
892140,北海道,広尾郡大樹町,栄通,42.49058924,143.2786323,松本ガス合同会社 第 75 支店
9600412,福島県,伊達市,雪車町,37.81751022,140.5054308,渡辺食品有限会社 第 29 支店
870034,北海道,根室市,東和田,43.29512327,145.55139184,有限会社坂本建設 第 24 支店
8701121,大分県,大分市,鴛野,33.18755432,131.61658361,合同会社西村通信 第 82 支店
6670123,兵庫県,養父市,鉄屋米地,35.38459339,134.82588474,小林印刷有限会社 第 67 支店
7960048,愛媛県,八幡浜市,北浜,33.46278635,132.42186248,合同会社佐藤通信 第 75 支店
8594528,長崎県,松浦市,今福町浦免,33.36064116,129.75856093,山本水産有限会社 第 28 支店
8020044,福岡県,北九州市小倉北区,熊本,33.86747524,130.89258302,後藤銀行株式会社 第 3 支店
5306102,大阪府,大阪市北区,中之島中之島ダイビル（２階）,34.69309157,135.4936498,株式会社岡本情報 第 99 支店
100353,秋田県,男鹿市,五里合神谷,39.98154333,139.8686126,合同会社三浦ガス 第 98 支店
5010532,岐阜県,揖斐郡大野町,下磯,35.42769827,136.62850748,合同会社橋本鉱業 第 41 支店
4620057,愛知県,名古屋市北区,平手町,35.20289618,136.9034673,山口ガス有限会社 第 72 支店
6795332,兵庫県,佐用郡佐用町,延吉,35.05950366,134.36260755,有限会社松本印刷 第 95 支店
9631308,福島県,郡山市,熱海町中山,37.52680271,140.2079182,鈴木鉱業合同会社 第 65 支店
2380033,神奈川県,横須賀市,阿部倉,35.25627239,139.63514124,清水情報株式会社 第 7 支店
9430607,新潟県,上越市,牧区川井沢,37.10129278,138.38753076,株式会社高橋保険 第 85 支店
730011,北海道,滝川市,黄金町西,43.57562344,141.91405732,斉藤水産合同会社 第 36 支店
9694155,福島県,喜多方市,山都町入海,37.63608954,139.75707829,有限会社森水産 第 54 支店
4780053,愛知県,知多市,清水が丘,34.99077458,136.87669939,有限会社遠藤電気 第 56 支店
295703,岩手県,和賀郡西和賀町,沢内貝沢,39.54912817,140.84473359,有限会社林建設 第 85 支店
6993761,島根県,益田市,飯浦町,34.66457615,131.70271684,渡辺水産株式会社 第 56 支店
8010854,福岡県,北九州市門司区,旧門司,33.95471708,130.96564302,有限会社山口銀行 第 35 支店
3850002,長野県,佐久市,上平尾,36.28651463,138.50915268,中島保険株式会社 第 93 支店
4440075,愛知県,岡崎市,伊賀町,34.9698011,137.16729855,株式会社鈴木電気 第 83 支店
7210906,広島県,福山市,能島,34.50964108,133.42132785,高橋銀行合同会社 第 39 支店
9994227,山形県,尾花沢市,中町,38.60539861,140.40430857,株式会社佐藤通信 第 34 支店
2610022,千葉県,千葉市美浜区,美浜,35.63998953,140.03665101,鈴木水産有限会社 第 80 支店
7820054,高知県,香美市,土佐山田町植,33.61987922,133.68372402,株式会社佐藤鉱業 第 4 支店
2891332,千葉県,山武市,親田,35.62090082,140.40221952,株式会社井上建設 第 80 支店
7630030,香川県,丸亀市,十番丁,34.28208884,133.80043358,株式会社坂本建設 第 43 支店
5440023,大阪府,大阪市生野区,林寺,34.64312784,135.53292532,山田食品有限会社 第 73 支店
8221303,福岡県,田川郡糸田町,桃山,33.66297698,130.78530216,株式会社山崎通信 第 4 支店
2790002,千葉県,浦安市,北栄,35.66502408,139.89988835,株式会社青木農林 第 46 支店
3214342,栃木県,真岡市,伊勢崎,36.42580102,139.97938717,斉藤農林合同会社 第 98 支店
3470108,埼玉県,加須市,戸崎,36.11729235,139.57055745,株式会社山本食品 第 10 支店
6994633,島根県,邑智郡美郷町,湯抱,35.10013568,132.56938694,吉田運輸有限会社 第 59 支店
6308256,奈良県,奈良市,奥芝町,34.68608288,135.822845,株式会社中島農林 第 43 支店
6891125,鳥取県,鳥取市,古郡家,35.452056400000004,134.2336513,岡田鉱業株式会社 第 25 支店
5150036,三重県,松阪市,平生町,34.57194304,136.53485561,有限会社伊藤水産 第 7 支店
50022,北海道,札幌市南区,真駒内柏丘,42.98379927,141.34471911,株式会社中村印刷 第 28 支店
6360833,奈良県,生駒郡三郷町,信貴南畑,34.60476827,135.66262621,阿部情報合同会社 第 6 支店
4240306,静岡県,静岡市清水区,小島本町,35.0886714,138.51675216,有限会社伊藤運輸 第 63 支店
6320247,奈良県,奈良市,都祁甲岡町,34.59651175,135.95192442,藤井ガス株式会社 第 58 支店
280123,岩手県,花巻市,東和町田瀬,39.30877405,141.3260069,合同会社斉藤電気 第 100 支店
7600005,香川県,高松市,宮脇町,34.33384042,134.03466048,福田通信有限会社 第 50 支店
5820015,大阪府,柏原市,高井田,34.57512479,135.63952014,有限会社加藤電気 第 81 支店
8490923,佐賀県,佐賀市,日の出,33.27744976,130.29392591,株式会社高橋ガス 第 48 支店
6010541,京都府,京都市右京区,京北赤石町,35.23436526,135.68088439,山下農林有限会社 第 60 支店
4442601,愛知県,豊田市,明川町,35.17125853,137.41327111,高橋農林有限会社 第 96 支店
8140141,福岡県,福岡市城南区,西片江,33.54318704,130.36542168,有限会社田中銀行 第 22 支店
3030011,茨城県,常総市,東町,36.04969821,140.01878957,有限会社井上銀行 第 47 支店
4380023,静岡県,磐田市,彦島,34.73325728,137.89963419,近藤情報株式会社 第 49 支店
3691241,埼玉県,深谷市,武蔵野,36.14179469,139.21250352,有限会社岡本通信 第 26 支店
960019,北海道,名寄市,西九条南,44.35098048,142.45063132,有限会社藤原電気 第 80 支店
7314212,広島県,安芸郡熊野町,初神,34.35718363,132.5954511,石井運輸有限会社 第 69 支店
8420122,佐賀県,神埼市,神埼町城原,33.3408966,130.35322701,中村農林合同会社 第 41 支店
230105,岩手県,奥州市,水沢区羽田町宝生,39.14200752,141.18487169,株式会社斎藤保険 第 28 支店
9690401,福島県,岩瀬郡鏡石町,南高久田,37.25460609,140.35386033,株式会社近藤食品 第 83 支店
9392401,富山県,富山市,八尾町東葛坂,36.56842866,137.12674561,有限会社佐藤保険 第 76 支店
7850504,高知県,高岡郡津野町,芳生野乙,33.44760096,133.00593922,佐藤農林株式会社 第 51 支店
7793505,徳島県,吉野川市,美郷栗木,34.03509257,134.28889115,合同会社高橋鉱業 第 99 支店
5780904,大阪府,東大阪市,吉原,34.686096899999995,135.62195473,有限会社青木ガス 第 41 支店
285131,岩手県,二戸郡一戸町,宇別,40.06328666,141.2961274,井上印刷合同会社 第 90 支店
9011407,沖縄県,南城市,つきしろ,26.16066424,127.79210859,佐々木電気有限会社 第 82 支店
230812,岩手県,奥州市,水沢区寺脇,39.14130569,141.14603596,株式会社田中通信 第 21 支店
691521,北海道,夕張郡栗山町,錦,43.05911715,141.77070545,株式会社高橋食品 第 63 支店
9670511,福島県,南会津郡南会津町,内川,37.14348277,139.47062916,有限会社斎藤情報 第 47 支店
283536,岩手県,紫波郡紫波町,北田,39.56989652,141.21141515,鈴木情報株式会社 第 73 支店
3330865,埼玉県,川口市,伊刈,35.84507642,139.69807853,有限会社村上情報 第 53 支店
411136,北海道,亀田郡七飯町,飯田町,41.89469249,140.6753836,佐藤食品有限会社 第 58 支店
5096102,岐阜県,瑞浪市,稲津町萩原,35.35671379,137.2981852,株式会社小林ガス 第 12 支店
9103124,福井県,福井市,田ノ頭町,36.13170491,136.11866906,株式会社山本通信 第 30 支店
2140032,神奈川県,川崎市多摩区,枡形,35.61246377,139.5562935,中川ガス合同会社 第 37 支店
5031624,岐阜県,大垣市,上石津町三ツ里,35.27744025,136.48925635,佐々木印刷株式会社 第 79 支店
5900414,大阪府,泉南郡熊取町,五門東,34.39556336,135.35411948,有限会社石井水産 第 51 支店
140378,秋田県,仙北市,角館町西野川原,39.59068228,140.55379125,株式会社山本運輸 第 32 支店
9970404,山形県,鶴岡市,下名川,38.60263678,139.8407989,株式会社佐々木保険 第 81 支店
7794307,徳島県,美馬郡つるぎ町,一宇（大佐古、奥大野、川又、實平、中野）,33.91178626,134.08726835,有限会社佐藤印刷 第 97 支店
6360124,奈良県,生駒郡斑鳩町,五百井,34.6045679,135.7317386,伊藤食品有限会社 第 49 支店
6680304,兵庫県,豊岡市,但東町水石,35.44479054,134.91552244,木村ガス合同会社 第 27 支店
4410316,愛知県,豊川市,御津町赤根柑子,34.81765478,137.29957814,有限会社加藤電気 第 100 支店
6371216,奈良県,吉野郡十津川村,川津,34.04931328,135.74544922,遠藤印刷有限会社 第 57 支店
6711545,兵庫県,揖保郡太子町,岩見構,34.81557475,134.56220702,松田建設合同会社 第 30 支店
3040024,茨城県,下妻市,坂本新田,36.19246796,139.96770993,合同会社佐藤電気 第 36 支店
150867,秋田県,由利本荘市,千刈,39.37332852,140.0439268,橋本銀行合同会社 第 29 支店
5031522,岐阜県,不破郡関ケ原町,陣場野,35.36484707,136.46392337,佐々木水産有限会社 第 96 支店
8600027,熊本県,熊本市中央区,西唐人町,32.79729262,130.69693136,中島鉱業有限会社 第 60 支店
4400083,愛知県,豊橋市,下地町（横山）,34.78303046,137.39155973,合同会社長谷川印刷 第 98 支店
970012,北海道,稚内市,富岡,45.38923294,141.71910024,阿部建設株式会社 第 61 支店
8110322,福岡県,福岡市東区,大岳,33.65295112,130.3382943,小林鉱業有限会社 第 48 支店
3710801,群馬県,前橋市,文京町,36.37987639,139.08637688,三浦ガス合同会社 第 43 支店
8140152,福岡県,福岡市城南区,堤団地,33.54553301,130.38213915,有限会社佐藤建設 第 4 支店
2500214,神奈川県,小田原市,永塚,35.30157468,139.17574058,佐藤情報有限会社 第 7 支店
4411534,愛知県,新城市,作手田代,34.94748953,137.48178218,中川農林株式会社 第 80 支店
9398137,富山県,富山市,開発,36.63189505,137.24756525,中村鉱業合同会社 第 65 支店
8140001,福岡県,福岡市早良区,百道浜,33.59240756,130.35171659,山本ガス有限会社 第 71 支店
3060608,茨城県,坂東市,幸神平,36.05297796,139.91755562,有限会社高橋情報 第 26 支店
2230062,神奈川県,横浜市港北区,日吉本町,35.55016875,139.63588014,林運輸株式会社 第 22 支店
930021,北海道,網走市,南十一条西,44.01611569,144.26563518,株式会社岡本農林 第 81 支店
9104102,福井県,あわら市,芦鶴,36.23304117,136.19430606,有限会社石川情報 第 79 支店
4442817,愛知県,豊田市,明賀町,35.21572406,137.36926932,合同会社吉田運輸 第 28 支店
2840043,千葉県,四街道市,めいわ,35.6527532,140.17172124,合同会社鈴木印刷 第 15 支店
5290354,滋賀県,長浜市,湖北町山本,35.44202467,136.21621497,株式会社山田銀行 第 91 支店
9170233,福井県,小浜市,太興寺,35.47699059,135.80043646,株式会社松田印刷 第 20 支店
8350024,福岡県,みやま市,瀬高町下庄,33.15080814,130.47168495,合同会社藤田鉱業 第 88 支店
613104,北海道,石狩市,浜益区床丹,43.67103424,141.35767664,田中運輸有限会社 第 67 支店
6892503,鳥取県,東伯郡琴浦町,松谷,35.49622195,133.64869938,佐藤保険株式会社 第 30 支店
6480032,和歌山県,橋本市,谷奥深,34.279981400000004,135.67164396,吉田銀行株式会社 第 66 支店
6700092,兵庫県,姫路市,新在家本町,34.85197412,134.68554298,有限会社福田電気 第 81 支店
9402045,新潟県,長岡市,西陵町,37.47111574,138.73713238,高橋ガス有限会社 第 28 支店
691132,北海道,夕張郡由仁町,三川錦町,42.94313884,141.80264731,中島電気株式会社 第 40 支店
7808031,高知県,高知市,大原町,33.55261097,133.53097564,合同会社斎藤鉱業 第 89 支店
3791305,群馬県,利根郡みなかみ町,後閑,36.6958874,139.00665513,伊藤印刷合同会社 第 70 支店
6801435,鳥取県,鳥取市,瀬田蔵,35.47159341,134.10718429,株式会社佐藤農林 第 28 支店
2450052,神奈川県,横浜市戸塚区,秋葉町,35.42166166,139.54579501,株式会社渡辺水産 第 39 支店
7011134,岡山県,岡山市北区,三和,34.74522853,133.83936514,有限会社中島建設 第 69 支店
9491625,新潟県,上越市,名立区瀬戸,37.07099114,138.10294467,山本通信株式会社 第 92 支店
9191451,福井県,三方上中郡若狭町,常神,35.6339753,135.83421265,有限会社山田電気 第 51 支店
9496746,新潟県,南魚沼市,畔地,37.05014867,138.96359715,山本運輸合同会社 第 82 支店
5290241,滋賀県,長浜市,高月町高月,35.46718075,136.23467683,山崎通信株式会社 第 79 支店
861731,北海道,標津郡標津町,古多糠,43.76971135,144.90973934,山田電気有限会社 第 42 支店
6752412,兵庫県,加西市,鍛治屋町,34.94770484,134.90480917,伊藤建設株式会社 第 80 支店
4470869,愛知県,碧南市,山神町,34.90021003,136.98713632,伊藤運輸合同会社 第 9 支店
8960016,鹿児島県,いちき串木野市,桜町,31.71932163,130.27033535,中村保険有限会社 第 64 支店
8721405,大分県,国東市,国見町赤根,33.5975968,131.58879559,有限会社阿部印刷 第 2 支店
9291325,石川県,羽咋郡宝達志水町,坪山,36.79165855,136.7678569,石井建設株式会社 第 35 支店
3610061,埼玉県,行田市,和田,36.16065331,139.45590253,合同会社森鉱業 第 64 支店
4910066,愛知県,一宮市,三丹町,35.32074823,136.80189651,合同会社三浦ガス 第 86 支店
8996602,鹿児島県,霧島市,１８３５－２３８、１８３５－２５３、２００３－５、２００３－９、,31.90724496,130.81318388,近藤鉱業株式会社 第 24 支店
3270503,栃木県,佐野市,富士見町,36.396350700000006,139.61106018,小林通信株式会社 第 4 支店
880351,北海道,白糠郡白糠町,下和天別,42.96304036,144.04527509,合同会社鈴木印刷 第 96 支店
3700341,群馬県,太田市,新田金井町,36.3083412,139.2944893,有限会社石川保険 第 96 支店
630802,北海道,札幌市西区,二十四軒二条,43.07217438,141.31399166,高橋印刷有限会社 第 4 支店
7070505,岡山県,英田郡西粟倉村,筏津,35.15112236,134.323329,橋本保険合同会社 第 50 支店
3700411,群馬県,太田市,亀岡町,36.25567497,139.31729009,株式会社藤原鉱業 第 70 支店
3270028,栃木県,佐野市,万町,36.31380529,139.57634942,鈴木ガス株式会社 第 93 支店
5810074,大阪府,八尾市,栄町,34.62369034,135.59661312,有限会社小川通信 第 13 支店
141201,秋田県,仙北市,田沢湖生保内,39.7042013,140.76874219,株式会社小林鉱業 第 72 支店
800306,北海道,河東郡音更町,北鈴蘭南,42.95742127,143.19152529,有限会社佐々木銀行 第 15 支店
5150004,三重県,松阪市,朝日町,34.58019019,136.53560432,有限会社木村農林 第 89 支店
1056023,東京都,港区,虎ノ門城山トラストタワー（２３階）,35.66470636,139.74321668,株式会社坂本食品 第 58 支店
5600033,大阪府,豊中市,蛍池中町,34.7932493,135.44842965,有限会社松本銀行 第 70 支店
7530821,山口県,山口市,葵,34.16134832,131.45034994,田中銀行株式会社 第 65 支店
5690043,大阪府,高槻市,竹の内町,34.82382512,135.6283736,佐藤運輸株式会社 第 62 支店
7610615,香川県,木田郡三木町,小蓑,34.18892274,134.1205368,岡田運輸株式会社 第 51 支店
770203,北海道,増毛郡増毛町,稲葉海岸町,43.85863006,141.52281963,株式会社山下保険 第 4 支店
6794026,兵庫県,たつの市,揖西町竹原,34.83940651,134.48764344,阿部情報株式会社 第 27 支店
7000825,岡山県,岡山市北区,田町,34.66042998,133.92458195,有限会社中島印刷 第 13 支店
5290144,滋賀県,長浜市,大寺町,35.43037766,136.26301833,有限会社田中水産 第 22 支店
390501,青森県,三戸郡南部町,上名久井,40.41174706,141.32715099,株式会社森印刷 第 24 支店
4770036,愛知県,東海市,横須賀町,35.01876967,136.88057383,木村水産合同会社 第 15 支店
4730902,愛知県,豊田市,大林町,35.04785471,137.14152941,佐藤印刷合同会社 第 49 支店
4928265,愛知県,稲沢市,小寺町,35.23969516,136.78223161,合同会社橋本情報 第 20 支店
5130808,三重県,鈴鹿市,西條町,34.8723058,136.56447257,後藤ガス株式会社 第 35 支店
2520100,神奈川県,相模原市緑区,以下に掲載がない場合,35.59564969,139.33770911,合同会社松本ガス 第 21 支店
4506245,愛知県,名古屋市中村区,名駅ミッドランドスクエア（高層棟）（４５階）,35.17012474,136.88527301,合同会社伊藤情報 第 29 支店
480631,北海道,島牧郡島牧村,千走,42.65175894,139.99177665,株式会社佐藤農林 第 83 支店
6730721,兵庫県,三木市,細川町高篠,34.84469222,135.02713148,有限会社佐藤水産 第 33 支店
6900846,島根県,松江市,末次町,35.46866738,133.04720131,松田印刷有限会社 第 17 支店
9390661,富山県,下新川郡入善町,高瀬,36.93042082,137.44994698,鈴木ガス合同会社 第 33 支店
6008381,京都府,京都市下京区,下り松町,35.00291619,135.74967321,山崎ガス有限会社 第 70 支店
4410311,愛知県,豊川市,御津町御馬剱,34.80462691,137.31594867,松本電気合同会社 第 73 支店
9330986,富山県,高岡市,西海老坂,36.78157562,136.99221397,株式会社林銀行 第 28 支店
3170054,茨城県,日立市,本宮町,36.60476735,140.66629785,株式会社鈴木銀行 第 32 支店
6993763,島根県,益田市,戸田町,34.66210646,131.73423088,有限会社鈴木電気 第 60 支店
6830064,鳥取県,米子市,道笑町,35.42486898,133.34116584,伊藤建設有限会社 第 75 支店
360222,青森県,平川市,長田野田,40.61098971,140.56184989,木村印刷株式会社 第 62 支店
3995303,長野県,木曽郡南木曽町,田立,35.61757853,137.54811334,渡辺情報有限会社 第 98 支店
6392164,奈良県,葛城市,長尾,34.51068028,135.71002091,合同会社山本保険 第 86 支店
1631408,東京都,新宿区,西新宿東京オペラシティ（８階）,35.68271914,139.68718892,有限会社渡辺鉱業 第 48 支店
1706056,東京都,豊島区,東池袋サンシャイン６０（５６階）,35.72940858,139.71820937,山田ガス株式会社 第 59 支店
9601232,福島県,福島市,松川町下川崎,37.63651913,140.50714967,阿部通信有限会社 第 73 支店
5810087,大阪府,八尾市,明美町,34.62020894,135.60166857,合同会社林電気 第 30 支店
491312,北海道,松前郡福島町,川原町,41.48145474,140.25406094,山本水産株式会社 第 1 支店
9300362,富山県,中新川郡上市町,稗田,36.69350961,137.35644364,坂本運輸株式会社 第 73 支店
1630226,東京都,新宿区,西新宿新宿住友ビル（２６階）,35.69141718,139.6926051,後藤ガス株式会社 第 31 支店
170865,秋田県,大館市,城西町,40.26977192,140.5438863,合同会社中川銀行 第 9 支店
5100025,三重県,四日市市,東新町,34.9747472,136.63535303,合同会社藤井ガス 第 8 支店
3450032,埼玉県,北葛飾郡杉戸町,広戸沼,36.04662036,139.76290835,合同会社松本運輸 第 41 支店
4020215,山梨県,南都留郡道志村,大指,35.51632295,139.0111469,佐藤電気株式会社 第 86 支店
5016045,岐阜県,羽島郡笠松町,司町,35.36645736,136.7631295,合同会社池田ガス 第 28 支店
4140004,静岡県,伊東市,猪戸,34.97131691,139.09237016,合同会社斎藤情報 第 39 支店
130422,秋田県,横手市,大雄南阿気,39.33662985,140.45384513,西村印刷有限会社 第 68 支店
180905,秋田県,由利本荘市,滝,39.36616420000001,140.22152973,林情報株式会社 第 26 支店
784112,北海道,苫前郡羽幌町,北二条,44.37083725,141.70672733,株式会社佐藤ガス 第 35 支店
3306003,埼玉県,さいたま市中央区,新都心明治安田生命さいたま新都心ビル（３階）,35.89332565,139.63238763,合同会社高橋農林 第 10 支店
861035,北海道,標津郡中標津町,東三十五条南,43.5649256,145.00664406,鈴木食品合同会社 第 14 支店
720803,北海道,美唄市,東明一条,43.33626823,141.89087288,渡辺農林有限会社 第 32 支店
9694135,福島県,喜多方市,山都町広中新田,37.64304394,139.76786501,合同会社渡辺保険 第 29 支店
9640926,福島県,二本松市,上蓬田,37.58518069,140.47861834,有限会社渡辺電気 第 7 支店
4100006,静岡県,沼津市,中沢田,35.13024965,138.85145361,合同会社田中通信 第 83 支店
6692361,兵庫県,篠山市,丸山,35.10544059,135.24601017,有限会社長谷川印刷 第 76 支店
9300069,富山県,富山市,旅籠町,36.68884401,137.20853799,中村食品合同会社 第 89 支店
770000,北海道,留萌市,以下に掲載がない場合,43.94098592,141.63701173,後藤鉱業合同会社 第 84 支店
983304,北海道,天塩郡天塩町,新地通,44.88649956,141.74654341,合同会社中村鉱業 第 46 支店
8797502,大分県,大分市,端登,33.10776267,131.62449108,合同会社松田電気 第 5 支店
8528034,長崎県,長崎市,城栄町,32.77663902,129.85582982,合同会社青木運輸 第 63 支店
9120146,福井県,大野市,落合,35.98657602,136.58328192,株式会社藤田通信 第 63 支店
9440342,新潟県,妙高市,長沢原,36.94721044,138.28610887,青木運輸合同会社 第 97 支店
5630026,大阪府,池田市,緑丘,34.82041206,135.44041177,株式会社藤田印刷 第 3 支店
7010203,岡山県,岡山市南区,古新田,34.62757372,133.87717702,高橋銀行有限会社 第 37 支店
8100063,福岡県,福岡市中央区,唐人町,33.59299759,130.37012206,橋本印刷有限会社 第 59 支店
2770045,千葉県,柏市,東逆井,35.82582622,139.98336138,株式会社木村鉱業 第 72 支店
1620855,東京都,新宿区,二十騎町,35.69851955,139.73071945,有限会社林銀行 第 71 支店
8920804,鹿児島県,鹿児島市,春日町,31.60587974,130.56582524,有限会社吉田通信 第 53 支店
9301465,富山県,富山市,牧,36.5665743,137.3510518,太田農林株式会社 第 35 支店
9593134,新潟県,村上市,羽ヶ榎,38.12450268,139.44830335,有限会社山崎鉱業 第 58 支店
6200957,京都府,福知山市,山崎,35.29722364,135.07787,有限会社渡辺運輸 第 20 支店
3140133,茨城県,神栖市,息栖,35.88138079,140.62701538,合同会社高橋通信 第 54 支店
6008864,京都府,京都市下京区,七条御所ノ内南町,34.98306871,135.73191189,太田銀行株式会社 第 88 支店
8200000,福岡県,飯塚市,以下に掲載がない場合,33.64590866,130.69151054,藤井運輸有限会社 第 7 支店
660077,北海道,千歳市,上長都,42.84361848,141.60255626,渡辺運輸有限会社 第 17 支店
9220277,石川県,加賀市,河南町,36.27217476,136.34743338,佐藤ガス株式会社 第 92 支店
6600825,兵庫県,尼崎市,南城内,34.7141938,135.42025121,松田電気合同会社 第 72 支店
6971331,島根県,浜田市,内村町（その他）,34.84044599,132.05925593,株式会社岡田印刷 第 87 支店
7611701,香川県,高松市,香川町大野,34.2660421,134.02516317,合同会社青木農林 第 94 支店
3100022,茨城県,水戸市,梅香,36.3740083,140.46788045,中村水産株式会社 第 94 支店
8894164,宮崎県,えびの市,昌明寺,32.08254549,130.75453986,株式会社山本電気 第 25 支店
5141111,三重県,津市,久居桜が丘町,34.6833575,136.4911176,近藤銀行株式会社 第 1 支店
330042,青森県,三沢市,栄町,40.6722339,141.36180486,斉藤建設有限会社 第 97 支店
6691324,兵庫県,三田市,ゆりのき台,34.91219901,135.17803846,山崎通信株式会社 第 36 支店
9892455,宮城県,岩沼市,北長谷,38.10517036,140.83911644,村上食品株式会社 第 36 支店
7400327,山口県,岩国市,角,34.164730600000006,132.10194471,有限会社遠藤運輸 第 2 支店
493122,北海道,二海郡八雲町,花浦,42.29337068,140.24444758,株式会社高橋建設 第 31 支店
5830022,大阪府,藤井寺市,東藤井寺町,34.56944513,135.60104609,株式会社井上銀行 第 53 支店
520024,北海道,伊達市,鹿島町,42.47100714,140.86521588,清水食品合同会社 第 83 支店
6497173,和歌山県,伊都郡かつらぎ町,大谷,34.29865322,135.49150075,株式会社伊藤運輸 第 52 支店
5980054,大阪府,泉佐野市,栄町,34.41261942,135.31722932,山本鉱業有限会社 第 79 支店
9503305,新潟県,新潟市北区,浦ノ入,37.95306054,139.22484853,小川印刷株式会社 第 99 支店
280156,岩手県,花巻市,東和町小通,39.35952643,141.22330389,株式会社松本通信 第 89 支店
520103,北海道,有珠郡壮瞥町,壮瞥温泉,42.55468275,140.86361651,佐藤保険有限会社 第 1 支店
394103,青森県,上北郡横浜町,川太郎川目,41.12888446,141.28562091,田中建設株式会社 第 71 支店
882274,北海道,川上郡標茶町,東阿歴内,43.09305623,144.62454146,藤井建設有限会社 第 96 支店
7814221,高知県,香美市,香北町白川,33.65391244,133.74483551,株式会社佐藤運輸 第 87 支店
9880101,宮城県,気仙沼市,赤岩舘下,38.88878931,141.57399461,佐藤水産有限会社 第 41 支店
6360938,奈良県,生駒郡平群町,若葉台,34.63615633,135.69277877,株式会社遠藤鉱業 第 32 支店
9637811,福島県,石川郡石川町,北山形,37.13017156,140.47618836,合同会社清水情報 第 79 支店
4750808,愛知県,半田市,川田町,34.89405028,136.94705724,佐藤保険株式会社 第 42 支店
7813213,高知県,高知市,土佐山西川,33.64892005,133.55826172,有限会社村上保険 第 30 支店
3891200,長野県,上水内郡飯綱町,以下に掲載がない場合,36.75467097,138.23563899,株式会社佐藤農林 第 46 支店
3000515,茨城県,稲敷市,南ケ丘,35.9309532,140.3354953,鈴木ガス株式会社 第 37 支店
7222631,広島県,福山市,内海町イ,34.35762549,133.32389967,株式会社渡辺ガス 第 56 支店
5031333,岐阜県,養老郡養老町,色目,35.33316051,136.55844454,松本電気株式会社 第 3 支店
3900845,長野県,松本市,石芝（１、２丁目）,36.20897637,137.95111835,有限会社加藤銀行 第 64 支店
613261,北海道,石狩市,花川東一条,43.16876812,141.33837714,株式会社佐藤食品 第 42 支店
6408004,和歌山県,和歌山市,東旅籠町,34.23782673,135.17608442,有限会社斉藤通信 第 40 支店
8220004,福岡県,直方市,畑,33.74733243,130.77222046,村上銀行株式会社 第 63 支店
9570058,新潟県,新発田市,西園町,37.95426727,139.31584601,高橋印刷有限会社 第 28 支店
1007004,東京都,千代田区,丸の内ＪＰタワー（４階）,35.67977437,139.76478041,株式会社田中通信 第 57 支店
750163,北海道,芦別市,緑泉町,43.46454836,142.16871834,藤井水産有限会社 第 31 支店
7440031,山口県,下松市,生野屋（為弘）,34.04616692,131.88667298,有限会社松本鉱業 第 25 支店
7313844,広島県,山県郡安芸太田町,打梨,34.56540992,132.18175423,有限会社佐藤運輸 第 7 支店
7560852,山口県,山陽小野田市,奥若山,33.974635799999994,131.18545017,佐藤運輸合同会社 第 97 支店
2600816,千葉県,千葉市中央区,鵜の森町,35.57483986,140.13960676,有限会社佐々木鉱業 第 60 支店
6840002,鳥取県,境港市,弥生町,35.54217883,133.21926227,木村運輸合同会社 第 67 支店
900008,北海道,北見市,大正,43.83179743,143.84869944,阿部銀行株式会社 第 68 支店
7510829,山口県,下関市,幡生宮の下町,33.98334791,130.9304537,有限会社山口食品 第 5 支店
4360076,静岡県,掛川市,塩町,34.77110342,138.01875459,林銀行有限会社 第 36 支店
6332422,奈良県,吉野郡東吉野村,鷲家,34.43440772,136.00348958,中村保険有限会社 第 30 支店
881306,北海道,厚岸郡浜中町,六番沢,43.11375915,145.06065526,有限会社鈴木情報 第 67 支店
5201805,滋賀県,高島市,マキノ町下,35.49725744,136.05617938,岡田水産有限会社 第 100 支店
4100223,静岡県,沼津市,内浦三津,35.02342845,138.90375868,佐藤通信合同会社 第 16 支店
9402301,新潟県,長岡市,宮沢,37.51247438,138.78232309,藤田保険有限会社 第 61 支店
6800741,鳥取県,八頭郡若桜町,大炊,35.32975075,134.41473034,坂本情報株式会社 第 36 支店
6393631,奈良県,吉野郡川上村,白川渡,34.30274234,135.99921144,藤田運輸株式会社 第 77 支店
9010156,沖縄県,那覇市,田原,26.1968671,127.66874703,合同会社山下通信 第 57 支店
5360017,大阪府,大阪市城東区,新喜多東,34.69360862,135.55026692,有限会社藤原建設 第 26 支店
891331,北海道,河西郡中札内村,西一条南,42.69704921,143.12987278,株式会社鈴木情報 第 25 支店
9390508,富山県,富山市,水橋西浜町,36.75836399,137.30272809,伊藤通信株式会社 第 17 支店
150024,秋田県,由利本荘市,内越,39.42050764,140.0823501,有限会社後藤印刷 第 34 支店
4838368,愛知県,江南市,宮田町南野東,35.35216837,136.84140111,山田情報合同会社 第 13 支店
8340047,福岡県,八女市,稲富,33.20745905,130.55038264,木村保険株式会社 第 11 支店
9430102,新潟県,上越市,杉野袋,37.14517092,138.30856452,株式会社山本電気 第 19 支店
9891206,宮城県,柴田郡大河原町,中の倉,38.03972058,140.73233225,池田水産合同会社 第 6 支店
6120876,京都府,京都市伏見区,深草西伊達町,34.95631808,135.77365722,合同会社中村運輸 第 28 支店
4380086,静岡県,磐田市,梅屋町,34.72373818,137.85595876,佐藤電気有限会社 第 56 支店
4140027,静岡県,伊東市,竹の内,34.96885238,139.0975671,伊藤印刷株式会社 第 53 支店
9391503,富山県,南砺市,岩武新,36.60831598,136.92337803,有限会社清水鉱業 第 1 支店
4960923,愛知県,愛西市,鰯江町,35.12665854,136.76151378,伊藤保険合同会社 第 30 支店
9188186,福井県,福井市,中野,36.00157788,136.18671238,吉田運輸有限会社 第 96 支店
4101311,静岡県,駿東郡小山町,小山,35.34413312,139.00050755,加藤電気株式会社 第 50 支店
9640868,福島県,二本松市,舘野,37.56556114,140.40238961,合同会社鈴木運輸 第 3 支店
6018434,京都府,京都市南区,西九条仏現寺町,34.97183274,135.75289744,高橋印刷合同会社 第 12 支店
4838066,愛知県,江南市,高屋町西町,35.34810975,136.87314489,山口電気株式会社 第 18 支店
9188051,福井県,福井市,桃園,36.06041828,136.20204309,中島建設有限会社 第 41 支店
7080015,岡山県,津山市,神戸,35.06128118,133.94043514,遠藤ガス株式会社 第 62 支店
5020004,岐阜県,岐阜市,三田洞,35.47176451,136.78803117,有限会社坂本通信 第 17 支店
5731177,大阪府,枚方市,渚元町,34.83189481,135.65866559,株式会社阿部建設 第 84 支店
9592043,新潟県,阿賀野市,大野地,37.82600802,139.25139405,高橋保険合同会社 第 86 支店
5010425,岐阜県,本巣郡北方町,栄町,35.43974106,136.6817467,株式会社長谷川農林 第 72 支店
781341,北海道,上川郡当麻町,開明,43.79718686,142.63097661,有限会社田中農林 第 75 支店
3700005,群馬県,高崎市,浜尻町,36.35286112,139.01616715,阿部運輸株式会社 第 52 支店
9391626,富山県,南砺市,法林寺,36.56684047,136.84401393,有限会社中島鉱業 第 70 支店
3191117,茨城県,那珂郡東海村,東海,36.47191779999999,140.56883434,鈴木銀行合同会社 第 99 支店
8950011,鹿児島県,薩摩川内市,天辰町,31.83413733,130.32928006,小林農林合同会社 第 58 支店
5940052,大阪府,和泉市,阪本町,34.47687036,135.44872452,有限会社吉田通信 第 17 支店
7000013,岡山県,岡山市北区,伊福町,34.67293712,133.91307635,吉田建設株式会社 第 98 支店
2790011,千葉県,浦安市,美浜,35.65287228,139.91052799,合同会社藤原水産 第 47 支店
7880314,高知県,幡多郡大月町,頭集,32.80482599,132.68514214,松田ガス合同会社 第 52 支店
6391005,奈良県,大和郡山市,植槻町,34.65401347,135.78047527,合同会社近藤農林 第 71 支店
8000304,福岡県,京都郡苅田町,鳥越町,33.81315588,130.99476669,合同会社伊藤情報 第 99 支店
4080033,山梨県,北杜市,長坂町白井沢,35.85677716,138.36727482,山下運輸株式会社 第 17 支店
7971713,愛媛県,西予市,城川町嘉喜尾,33.39791902,132.7469141,高橋印刷有限会社 第 72 支店
8893142,宮崎県,日南市,塩鶴,31.55473019,131.3751536,佐藤水産有限会社 第 92 支店
7311705,広島県,山県郡北広島町,西宗,34.6738333,132.45552876,合同会社吉田ガス 第 83 支店
4490212,愛知県,北設楽郡東栄町,月,35.06962246,137.65646358,合同会社西村銀行 第 12 支店
6492522,和歌山県,西牟婁郡白浜町,矢田,33.58744555,135.45906933,有限会社藤田銀行 第 25 支店
3590027,埼玉県,所沢市,松郷,35.79756891,139.50147787,山田鉱業株式会社 第 25 支店
2900212,千葉県,市原市,新巻,35.43248434,140.17656452,株式会社山下印刷 第 86 支店
8894154,宮崎県,えびの市,柳水流,32.03601803,130.76406793,渡辺保険合同会社 第 45 支店
4092412,山梨県,南巨摩郡身延町,角打,35.35372904,138.46489695,有限会社鈴木印刷 第 14 支店
287624,岩手県,八幡平市,大又沢口,40.13746089,140.88279777,合同会社山本情報 第 13 支店
9693111,福島県,耶麻郡猪苗代町,二丁田,37.56477118,140.10943771,合同会社山崎建設 第 98 支店
4100309,静岡県,沼津市,根古屋,35.14498004,138.80563264,遠藤銀行合同会社 第 99 支店
3002304,茨城県,つくばみらい市,武兵衛新田,35.97455646,140.06827196,有限会社前田食品 第 52 支店
3703532,群馬県,高崎市,中里町,36.39422461,138.98515657,後藤通信合同会社 第 79 支店
2060004,東京都,多摩市,百草,35.63759674,139.43394709,合同会社吉田情報 第 71 支店
2500132,神奈川県,南足柄市,弘西寺,35.32996725,139.08812849,吉田通信合同会社 第 14 支店
8300027,福岡県,久留米市,長門石,33.32429946,130.49449966,佐藤銀行合同会社 第 11 支店
1631030,東京都,新宿区,西新宿新宿パークタワー（３０階）,35.68559779,139.69054162,前田食品有限会社 第 37 支店
9980032,山形県,酒田市,相生町,38.91900863,139.84183894,合同会社岡田電気 第 10 支店
200711,岩手県,滝沢市,大沢谷地上,39.7245142,141.07433468,長谷川鉱業有限会社 第 69 支店
710476,北海道,上川郡美瑛町,御牧,43.51814102,142.53750727,林保険株式会社 第 24 支店
8790515,大分県,宇佐市,末,33.50854109,131.30615488,後藤印刷合同会社 第 58 支店
3260055,栃木県,足利市,永楽町,36.33308545,139.45321722,株式会社田中印刷 第 85 支店
6671344,兵庫県,美方郡香美町,村岡区大笹,35.40480272,134.55113426,藤井銀行有限会社 第 9 支店
7830031,高知県,南国市,下野田,33.57601226,133.65638158,山崎ガス合同会社 第 89 支店
611265,北海道,北広島市,島松,42.9317252,141.51765709,有限会社石川運輸 第 30 支店
4100822,静岡県,沼津市,下香貫,35.07802482,138.87459631,高橋情報株式会社 第 49 支店
3192223,茨城県,常陸大宮市,三美,36.54495119,140.35576033,株式会社佐藤農林 第 10 支店
9491732,新潟県,上越市,東吉尾,37.11701337,138.13719851,小川農林合同会社 第 79 支店
9200353,石川県,金沢市,赤土町,36.58433628,136.59756773,合同会社佐藤農林 第 87 支店
8060065,福岡県,北九州市八幡西区,養福寺町,33.8401826,130.75140992,鈴木水産有限会社 第 41 支店
4101100,静岡県,裾野市,以下に掲載がない場合,35.17388161,138.90672912,有限会社長谷川農林 第 94 支店
4630062,愛知県,名古屋市守山区,長栄,35.19607196,136.9638704,藤井保険有限会社 第 11 支店
9580847,新潟県,村上市,大工町,38.22418299,139.47669898,高橋ガス合同会社 第 72 支店
9140027,福井県,敦賀市,若泉町,35.64242587,136.07922434,田中運輸有限会社 第 19 支店
3830041,長野県,中野市,岩船,36.74268127,138.35862018,小川情報株式会社 第 99 支店
4213202,静岡県,静岡市清水区,蒲原新栄,35.12625678,138.6222773,福田運輸株式会社 第 35 支店
180112,秋田県,にかほ市,象潟町家の後,39.20761099,139.90211061,有限会社鈴木農林 第 11 支店
7793407,徳島県,吉野川市,山川町宮地,34.05285674,134.240673,佐藤建設株式会社 第 39 支店
4840851,愛知県,犬山市,烏杜,35.32687267,136.94953256,太田運輸有限会社 第 32 支店
3293224,栃木県,那須郡那須町,豊原乙,37.081721,140.1266541,合同会社伊藤情報 第 40 支店
9370807,富山県,魚津市,大光寺,36.80882162,137.40597306,山口銀行合同会社 第 87 支店
7070036,岡山県,美作市,北原,34.99994182,134.17800296,合同会社鈴木印刷 第 13 支店
3001264,茨城県,つくば市,泊崎,35.9536242,140.11289155,渡辺食品合同会社 第 1 支店
940005,北海道,紋別市,幸町,44.35256687,143.35320683,合同会社高橋鉱業 第 26 支店
8200503,福岡県,嘉麻市,光代,33.56674636,130.71881014,伊藤運輸有限会社 第 30 支店
5016093,岐阜県,羽島郡笠松町,緑町,35.37651218,136.76013733,合同会社吉田情報 第 68 支店
2520188,神奈川県,相模原市緑区,寸沢嵐（新戸）,35.56769994,139.20390416,株式会社山本電気 第 91 支店
9421418,新潟県,十日町市,松之山藤内名,37.08228511,138.62685573,株式会社村上建設 第 34 支店
6540065,兵庫県,神戸市須磨区,離宮前町,34.64989058,135.11902144,合同会社中川運輸 第 80 支店
9390677,富山県,下新川郡入善町,木根,36.93398311,137.46794839,合同会社鈴木運輸 第 96 支店
9696164,福島県,大沼郡会津美里町,本郷道上,37.45446332,139.88188594,株式会社吉田農林 第 79 支店
6308127,奈良県,奈良市,三条添川町,34.68063519,135.81158608,長谷川情報合同会社 第 43 支店
6392127,奈良県,葛城市,新町,34.48073837,135.73758313,株式会社村上食品 第 14 支店
6900049,島根県,松江市,袖師町,35.45659578,133.05115232,木村農林株式会社 第 59 支店
6038054,京都府,京都市北区,上賀茂桜井町,35.05165444,135.76157473,青木ガス株式会社 第 87 支店
3091615,茨城県,笠間市,金井,36.39925232,140.26042638,合同会社小川通信 第 27 支店
2720034,千葉県,市川市,市川,35.73530679,139.90492153,合同会社鈴木情報 第 64 支店
6068305,京都府,京都市左京区,吉田河原町,35.02408362,135.77288745,小林運輸株式会社 第 25 支店
4710035,愛知県,豊田市,小坂町,35.08552015,137.14485267,福田食品株式会社 第 88 支店
5330001,大阪府,大阪市東淀川区,井高野,34.76478014,135.54555461,中村ガス合同会社 第 97 支店
7911203,愛媛県,上浮穴郡久万高原町,西明神,33.66748636,132.87482793,前田建設有限会社 第 64 支店
9580871,新潟県,村上市,久保多町,38.22950948,139.48443656,合同会社近藤鉱業 第 72 支店
8000237,福岡県,北九州市小倉南区,中貫,33.81207345,130.92879148,有限会社渡辺水産 第 52 支店
6028342,京都府,京都市上京区,五番町,35.02398037,135.74161652,三浦鉱業合同会社 第 63 支店
4370624,静岡県,浜松市天竜区,春野町和泉平,34.96316356,137.93084151,松本銀行有限会社 第 80 支店
7860521,高知県,高岡郡四万十町,津賀,33.22520893,132.93063479,鈴木農林有限会社 第 34 支店
520100,北海道,有珠郡壮瞥町,以下に掲載がない場合,42.55228325,140.88601375,佐々木保険有限会社 第 37 支店
9110811,福井県,勝山市,片瀬,36.05218295,136.53521627,合同会社西村銀行 第 70 支店
8796111,大分県,竹田市,荻町南河内,32.94101396,131.31567362,伊藤食品有限会社 第 88 支店
7320014,広島県,広島市東区,戸坂大上,34.42631111,132.49577798,株式会社後藤建設 第 68 支店
3210223,栃木県,下都賀郡壬生町,元町,36.41632058,139.80644386,山本農林有限会社 第 35 支店
3220016,栃木県,鹿沼市,流通センター,36.51466049,139.80019596,株式会社山本銀行 第 21 支店
2870823,千葉県,香取市,笄島,35.92665288,140.49358969,佐々木建設株式会社 第 93 支店
6700901,兵庫県,姫路市,西二階町,34.83231256,134.68985922,中村農林有限会社 第 27 支店
611415,北海道,恵庭市,泉町,42.87824191,141.57799204,太田運輸有限会社 第 94 支店
6020861,京都府,京都市上京区,新烏丸頭町,35.01974409,135.76854284,合同会社佐藤ガス 第 86 支店
6290341,京都府,南丹市,日吉町殿田,35.15098701,135.50079759,山本電気株式会社 第 35 支店
9812173,宮城県,伊具郡丸森町,船越,37.9243593,140.73877665,株式会社清水通信 第 11 支店
5560021,大阪府,大阪市浪速区,幸町,34.66885849,135.48769703,株式会社伊藤食品 第 21 支店
880875,北海道,厚岸郡厚岸町,苫多,43.02823658,144.74690022,合同会社松本水産 第 65 支店
5008064,岐阜県,岐阜市,柳沢町,35.42252287,136.76485528,有限会社高橋運輸 第 34 支店
200751,岩手県,滝沢市,大釜千が窪,39.70489427,141.04778946,岡田情報株式会社 第 48 支店
6680054,兵庫県,豊岡市,塩津町,35.53220793,134.82775057,山本鉱業株式会社 第 27 支店
5290341,滋賀県,長浜市,湖北町速水,35.44541244,136.23600665,合同会社池田情報 第 14 支店
4440942,愛知県,岡崎市,中園町,34.96989825,137.14048861,有限会社藤井保険 第 46 支店
3360017,埼玉県,さいたま市南区,南浦和,35.84849175,139.67161155,有限会社佐々木鉱業 第 2 支店
9593208,新潟県,岩船郡関川村,田麦千刈,38.15721789,139.59128473,鈴木運輸有限会社 第 80 支店
3842105,長野県,佐久市,矢嶋,36.25264374,138.39039643,後藤建設合同会社 第 84 支店
8790722,大分県,豊後高田市,一畑,33.56301681,131.57844378,佐々木水産有限会社 第 79 支店
1706044,東京都,豊島区,東池袋サンシャイン６０（４４階）,35.72940858,139.71820937,伊藤運輸株式会社 第 18 支店
4570855,愛知県,名古屋市南区,豊田町,35.09417116,136.90096894,株式会社清水通信 第 17 支店
9850034,宮城県,塩竈市,南錦町,38.30574758,141.01204458,山本建設株式会社 第 58 支店
700831,北海道,旭川市,旭町１条,43.7885329,142.34834467,株式会社田中水産 第 61 支店
6800524,鳥取県,八頭郡八頭町,茂田,35.35272692,134.31055762,株式会社山口水産 第 53 支店
5100082,三重県,四日市市,中部,34.96888491,136.62568902,株式会社高橋通信 第 15 支店
4443173,愛知県,岡崎市,滝町,34.99038375,137.20312464,合同会社池田情報 第 53 支店
3110112,茨城県,那珂市,津田,36.4143423,140.49342564,山下鉱業有限会社 第 22 支店
2892176,千葉県,匝瑳市,大堀,35.74078258,140.50753279,株式会社加藤情報 第 81 支店
2520344,神奈川県,相模原市南区,古淵,35.55380625,139.420751,村上水産合同会社 第 28 支店
9393548,富山県,富山市,三郷,36.71354905,137.28955274,有限会社高橋農林 第 49 支店
6830813,鳥取県,米子市,朝日町,35.43260926,133.33116746,有限会社石井情報 第 28 支店
3820051,長野県,須坂市,八重森町,36.66405628,138.28591229,有限会社長谷川建設 第 21 支店
7110926,岡山県,倉敷市,下津井吹上,34.44167724,133.79933331,株式会社松田農林 第 1 支店
5810024,大阪府,八尾市,二俣,34.59862352,135.61958363,小林通信有限会社 第 28 支店
2860221,千葉県,富里市,七栄,35.73916171,140.31855767,合同会社松本水産 第 29 支店
7794104,徳島県,美馬郡つるぎ町,貞光（太田西、太田東、太田東山、小長谷、小山北、柴内、柴山、僧地、僧山）,34.04257025,134.08776591,株式会社中村鉱業 第 38 支店
5202151,滋賀県,大津市,栗林町,34.99074118,135.93928127,斎藤印刷株式会社 第 4 支店
6391104,奈良県,大和郡山市,井戸野町,34.63539218,135.81639926,小林通信合同会社 第 9 支店
3530001,埼玉県,志木市,上宗岡,35.84782020000001,139.58114234,福田建設合同会社 第 17 支店
9303263,富山県,中新川郡立山町,淵上,36.65535967,137.33510985,合同会社清水建設 第 22 支店
3701616,群馬県,多野郡上野村,乙父,36.07879777,138.75174361,合同会社佐々木農林 第 56 支店
8696211,熊本県,葦北郡芦北町,箙瀬,32.33076388,130.60022725,高橋水産株式会社 第 61 支店
5100232,三重県,鈴鹿市,北江島町,34.84371325,136.59730305,田中銀行株式会社 第 23 支店
5011534,岐阜県,本巣市,根尾神所,35.6376305,136.5973668,株式会社池田ガス 第 95 支店
4212111,静岡県,静岡市葵区,中ノ郷,35.03073156,138.36169719,長谷川銀行有限会社 第 29 支店
2310857,神奈川県,横浜市中区,塚越,35.42421544,139.63074764,有限会社佐々木鉱業 第 11 支店
8050014,福岡県,北九州市八幡東区,茶屋町,33.86681936,130.84333292,有限会社坂本農林 第 51 支店
9300982,富山県,富山市,荒川,36.697024,137.25012866,橋本銀行有限会社 第 32 支店
1920151,東京都,八王子市,上川町,35.70422566,139.23842729,高橋銀行株式会社 第 44 支店
8970306,鹿児島県,南九州市,知覧町西元,31.3342425,130.40424074,鈴木鉱業合同会社 第 81 支店
3291572,栃木県,矢板市,安沢,36.775755700000005,139.96584141,合同会社伊藤農林 第 56 支店
3000122,茨城県,かすみがうら市,西成井,36.10300064,140.32738583,有限会社岡田銀行 第 80 支店
5060000,岐阜県,高山市,以下に掲載がない場合,36.14612341,137.25217241,合同会社木村鉱業 第 13 支店
9191534,福井県,三方上中郡若狭町,仮屋,35.447585100000005,135.87563641,池田通信株式会社 第 24 支店
6360911,奈良県,生駒郡平群町,椿井,34.61723905,135.71040614,井上水産株式会社 第 49 支店
8493104,佐賀県,唐津市,厳木町星領,33.38826106,130.10704926,佐藤食品合同会社 第 15 支店
986564,北海道,稚内市,声問村（川西）,45.25440241,141.80661692,合同会社林建設 第 83 支店
7750012,徳島県,海部郡牟岐町,牟岐浦（宮ノ本）,33.66607956,134.42408416,鈴木鉱業合同会社 第 55 支店
2140008,神奈川県,川崎市多摩区,菅北浦,35.62782843,139.53393455,伊藤印刷合同会社 第 27 支店
4093231,山梨県,西八代郡市川三郷町,落居,35.50937446,138.48130157,株式会社山口鉱業 第 25 支店
9560036,新潟県,新潟市秋葉区,中村,37.78129188,139.11529506,伊藤鉱業有限会社 第 79 支店
9370024,富山県,魚津市,布施爪,36.83232598,137.47559037,井上保険合同会社 第 60 支店
6710225,兵庫県,姫路市,別所町家具町,34.82129538,134.74822209,木村食品株式会社 第 85 支店
3200012,栃木県,宇都宮市,山本,36.58178952,139.8843626,田中ガス有限会社 第 41 支店
9593431,新潟県,村上市,平林,38.14018884,139.47396171,木村ガス合同会社 第 58 支店
8560842,長崎県,大村市,中里町,32.88277074,130.00452576,鈴木銀行合同会社 第 51 支店
7390464,広島県,廿日市市,大野水ノ越,34.29561127,132.27651595,有限会社木村印刷 第 97 支店
4440127,愛知県,額田郡幸田町,須美,34.85615284,137.13266832,中川水産合同会社 第 59 支店
5203022,滋賀県,栗東市,上鈎,35.02502687,135.99153632,石井電気有限会社 第 15 支店
4228062,静岡県,静岡市駿河区,稲川,34.9680821,138.39223632,有限会社高橋鉱業 第 26 支店
6158115,京都府,京都市西京区,川島流田町,34.96677503,135.70067117,株式会社田中ガス 第 59 支店
4880876,愛知県,尾張旭市,平子ケ丘町,35.221763,137.01474958,合同会社鈴木鉱業 第 82 支店
5720067,大阪府,寝屋川市,宝町,34.76726041,135.60334431,株式会社村上電気 第 30 支店
6050006,京都府,京都市東山区,新五軒町,35.00749596,135.77230275,株式会社橋本食品 第 59 支店
6011254,京都府,京都市左京区,八瀬野瀬町（その他）,35.07125254,135.81493301,株式会社佐藤通信 第 56 支店
8700043,大分県,大分市,中島東,33.24481109,131.61800555,株式会社鈴木電気 第 11 支店
9640815,福島県,二本松市,唐谷山,37.5737948,140.42996989,太田保険株式会社 第 72 支店
5180756,三重県,名張市,緑が丘東,34.64208726,136.1046107,有限会社井上印刷 第 44 支店
7910501,愛媛県,西条市,丹原町徳能出作,33.92379408,133.06328838,林印刷合同会社 第 29 支店
2640011,千葉県,千葉市若葉区,大草町,35.61028922,140.19176663,佐藤情報合同会社 第 68 支店
6038371,京都府,京都市北区,衣笠東御所ノ内町,35.04012861,135.73504091,田中運輸株式会社 第 20 支店
4890079,愛知県,瀬戸市,西印所町,35.23411508,137.10199019,高橋運輸株式会社 第 53 支店
10013,北海道,札幌市北区,北十三条西（１～４丁目）,43.0767253,141.34974942,株式会社山口情報 第 37 支店
6038235,京都府,京都市北区,紫野下御輿町,35.04079452,135.7393105,鈴木保険合同会社 第 57 支店
6391057,奈良県,大和郡山市,山田町,34.63081649,135.73765522,株式会社加藤保険 第 82 支店
7960801,愛媛県,西宇和郡伊方町,三崎,33.38810605,132.13169031,高橋鉱業合同会社 第 80 支店
9660911,福島県,喜多方市,豊川町高堂太,37.62847177,139.8904904,合同会社福田運輸 第 68 支店
9870384,宮城県,登米市,豊里町十五貫,38.59898736,141.22038841,斎藤運輸株式会社 第 65 支店
4240865,静岡県,静岡市清水区,北矢部,34.99068605,138.46917033,田中農林合同会社 第 15 支店
6340825,奈良県,橿原市,観音寺町,34.4699761,135.75756326,前田情報株式会社 第 37 支店
6393324,奈良県,吉野郡吉野町,香束,34.42018291,135.90400107,田中ガス有限会社 第 22 支店
680044,北海道,岩見沢市,北四条西,43.20568087,141.74818942,有限会社小川通信 第 86 支店
4540965,愛知県,名古屋市中川区,福島,35.12511128,136.80058118,合同会社福田食品 第 12 支店
8100062,福岡県,福岡市中央区,荒戸,33.59275381,130.37549852,田中印刷合同会社 第 9 支店
491453,北海道,松前郡福島町,吉岡,41.44505051,140.20471742,有限会社佐藤鉱業 第 96 支店
6691337,兵庫県,三田市,学園,34.91035356,135.16377058,合同会社清水農林 第 5 支店
7080311,岡山県,苫田郡鏡野町,寺和田,35.13578694,133.95629216,前田建設株式会社 第 41 支店
7780101,徳島県,三好市,西祖谷山村尾井ノ内,33.89659889,133.82099678,福田鉱業株式会社 第 10 支店
6700995,兵庫県,姫路市,土山東の町,34.83256519,134.67655631,合同会社佐藤水産 第 55 支店
182636,秋田県,山本郡八峰町,八森上嘉治助台,40.3681671,140.02660189,有限会社藤原水産 第 96 支店
3114164,茨城県,水戸市,谷津町,36.40789470000001,140.36109259,松本銀行合同会社 第 58 支店
9812102,宮城県,伊具郡丸森町,舘矢間舘山,37.92431283,140.7833501,伊藤銀行株式会社 第 67 支店
9550147,新潟県,三条市,中野原,37.55065199,139.0449442,加藤建設合同会社 第 69 支店
5430012,大阪府,大阪市天王寺区,空堀町,34.67416441,135.52731848,有限会社山本印刷 第 61 支店
6810032,鳥取県,岩美郡岩美町,洗井,35.50378907,134.3982108,有限会社吉田建設 第 88 支店
8980055,鹿児島県,枕崎市,桜山西町,31.2916696,130.28065258,株式会社後藤通信 第 47 支店
6060093,京都府,京都市左京区,上高野上荒蒔町,35.05840487,135.79173547,高橋保険合同会社 第 96 支店
8701151,大分県,大分市,市,33.18622141,131.57338688,合同会社岡本運輸 第 18 支店
9608018,福島県,福島市,松木町,37.75937631,140.47140532,遠藤鉱業株式会社 第 77 支店
5860065,大阪府,河内長野市,南ケ丘,34.41219824,135.56386393,合同会社藤原鉱業 第 66 支店
4160924,静岡県,富士市,水戸島本町,35.14764978,138.64853099,合同会社斉藤農林 第 11 支店
6640872,兵庫県,伊丹市,車塚,34.76356788,135.40054615,株式会社渡辺水産 第 57 支店
9370843,富山県,魚津市,上野,36.7811223,137.41079516,合同会社佐藤印刷 第 71 支店
3900852,長野県,松本市,島立,36.22296394,137.9389472,山下食品株式会社 第 14 支店
8070802,福岡県,北九州市八幡西区,力丸町,33.87733501,130.72532471,有限会社山田建設 第 81 支店
6018414,京都府,京都市南区,西九条蔵王町,34.98063801,135.75310045,合同会社佐藤鉱業 第 96 支店
9620056,福島県,須賀川市,大桑原,37.2965889,140.31497221,山口運輸株式会社 第 91 支店
9638403,福島県,東白川郡鮫川村,赤坂東野,37.01709637,140.54168661,佐藤運輸株式会社 第 92 支店
6700973,兵庫県,姫路市,亀山,34.80941273,134.6744932,岡田通信合同会社 第 3 支店
5730057,大阪府,枚方市,堤町,34.81207659,135.63808489,合同会社清水鉱業 第 15 支店
6820837,鳥取県,倉吉市,下大江,35.41297173,133.81073724,株式会社青木食品 第 86 支店
520013,北海道,伊達市,弄月町,42.46023707,140.89254965,株式会社岡田ガス 第 15 支店
6020848,京都府,京都市上京区,扇町（寺町通今出川下る、寺町通石薬師上る、寺町通石薬師下,35.02779604,135.76800493,合同会社松本運輸 第 99 支店
9820252,宮城県,仙台市太白区,茂庭台,38.2348589,140.78328897,吉田食品合同会社 第 85 支店
2770087,千葉県,柏市,常盤台,35.8468917,139.96690459,株式会社石井情報 第 62 支店
9591221,新潟県,燕市,花園町,37.68392889,138.95280152,斎藤保険有限会社 第 40 支店
9980855,山形県,酒田市,東中の口町,38.91096064,139.8449397,有限会社渡辺印刷 第 4 支店
300921,青森県,青森市,原別,40.84123439,140.80656655,株式会社山口ガス 第 26 支店
4702377,愛知県,知多郡武豊町,会下,34.84199791,136.88894324,合同会社中村通信 第 77 支店
6050981,京都府,京都市東山区,本町,34.97963669,135.77306839,株式会社中村鉱業 第 86 支店
7090464,岡山県,和気郡和気町,田原下,34.81574988,134.12437857,合同会社森鉱業 第 38 支店
640924,北海道,札幌市中央区,南二十四条西,43.02726377,141.34521279,清水鉱業有限会社 第 63 支店
6550024,兵庫県,神戸市垂水区,御霊町,34.63297059,135.05791221,有限会社渡辺ガス 第 69 支店
6128375,京都府,京都市伏見区,川東町,34.93783221,135.75459794,橋本ガス有限会社 第 66 支店
8790224,大分県,中津市,三光下深水,33.51250056,131.25544046,有限会社佐藤電気 第 43 支店
392613,青森県,上北郡東北町,子ノ鳥平,40.81884018,141.2695288,山口通信合同会社 第 58 支店
6491102,和歌山県,日高郡由良町,中,33.97730426,135.13791963,高橋保険有限会社 第 96 支店
9540061,新潟県,見附市,熱田町,37.51540586,138.91680128,株式会社山下銀行 第 27 支店
770035,北海道,留萌市,礼受町,43.89810632,141.63653346,田中通信株式会社 第 32 支店
140375,秋田県,仙北市,角館町岩瀬下タ野,39.58317146,140.57135469,株式会社松本情報 第 97 支店
7510857,山口県,下関市,稗田北町,33.99653412,130.93134725,高橋建設株式会社 第 44 支店
3901502,長野県,松本市,安曇（島々）,36.182771,137.78428925,藤原情報合同会社 第 47 支店
2110035,神奈川県,川崎市中原区,井田,35.5622808,139.64107841,株式会社井上鉱業 第 39 支店
181411,秋田県,潟上市,昭和豊川上虻川,39.85986402,140.15024283,合同会社鈴木銀行 第 45 支店
5061112,岐阜県,飛騨市,神岡町割石,36.36461797,137.26536372,有限会社佐藤水産 第 47 支店
2591202,神奈川県,平塚市,千須谷,35.35068146,139.28987473,佐藤情報株式会社 第 18 支店
9660046,福島県,喜多方市,原田,37.65369958,139.88586998,合同会社石井建設 第 77 支店
380101,青森県,平川市,碇ケ関横町,40.47073749,140.63146686,株式会社鈴木保険 第 24 支店
6310074,奈良県,奈良市,三松,34.70081197,135.728754,山下印刷株式会社 第 14 支店
2990243,千葉県,袖ケ浦市,蔵波,35.43712126,140.00728188,伊藤銀行合同会社 第 21 支店
2530011,神奈川県,茅ヶ崎市,菱沼,35.34388764,139.43210429,伊藤建設合同会社 第 96 支店
9708002,福島県,いわき市,平中平窪,37.08882114,140.88855672,有限会社山下鉱業 第 75 支店
3690314,埼玉県,児玉郡上里町,三町,36.23292701,139.12995998,株式会社佐藤保険 第 62 支店
4620008,愛知県,名古屋市北区,如来町,35.23439606,136.91472411,清水鉱業株式会社 第 72 支店
4750007,愛知県,半田市,西大矢知町,34.92510804,136.93674446,中川情報合同会社 第 71 支店
9500072,新潟県,新潟市中央区,竜が島,37.93041684,139.06869664,合同会社石川鉱業 第 3 支店
7860524,高知県,高岡郡四万十町,里川,33.18576862,132.94248554,佐藤建設有限会社 第 29 支店
9940104,山形県,天童市,田麦野,38.35788591,140.48211628,中村農林合同会社 第 58 支店
2892154,千葉県,匝瑳市,富岡,35.70583706,140.5227675,鈴木情報有限会社 第 83 支店
2520213,神奈川県,相模原市中央区,すすきの町,35.58899719,139.36860549,合同会社村上保険 第 40 支店
2880863,千葉県,銚子市,野尻町,35.76577153,140.75737413,小林食品株式会社 第 61 支店
6270003,京都府,京丹後市,峰山町内記,35.63106778,135.08754416,有限会社高橋ガス 第 67 支店
3600102,埼玉県,熊谷市,須賀広,36.10800202,139.34446536,有限会社青木電気 第 69 支店
4411401,愛知県,新城市,作手守義,35.05136242,137.48735332,山本農林合同会社 第 31 支店
9593924,新潟県,村上市,北黒川,38.42940543,139.6475348,合同会社木村印刷 第 56 支店
1350041,東京都,江東区,冬木,35.67487682,139.80146349,株式会社中川鉱業 第 82 支店
7038262,岡山県,岡山市中区,福泊,34.65589214,133.97852107,合同会社長谷川保険 第 87 支店
2570003,神奈川県,秦野市,南矢名,35.37328745,139.27320239,渡辺銀行株式会社 第 31 支店
295522,岩手県,和賀郡西和賀町,中村５８地割、中村５９地割,39.27725764,140.72170233,山田情報合同会社 第 3 支店
9791421,福島県,双葉郡双葉町,前田,37.44292156,141.00000194,長谷川運輸有限会社 第 85 支店
9610874,福島県,白河市,九番町西裏,37.11876212,140.20452792,伊藤鉱業合同会社 第 28 支店
800563,北海道,河東郡音更町,駒場平和台,43.04860379,143.18834813,加藤水産有限会社 第 52 支店
7940062,愛媛県,今治市,馬越町,34.05663543,132.98183803,株式会社高橋ガス 第 20 支店
5300017,大阪府,大阪市北区,角田町,34.70388148,135.49951012,合同会社伊藤ガス 第 12 支店
4670052,愛知県,名古屋市瑞穂区,片坂町,35.11640853,136.94527264,株式会社高橋通信 第 75 支店
9496741,新潟県,南魚沼市,清水瀬,37.065214700000006,138.99280239,合同会社池田ガス 第 29 支店
5008207,岐阜県,岐阜市,日野北,35.44107928,136.81412082,池田農林合同会社 第 58 支店
800817,北海道,帯広市,依田町,42.92813097,143.2152688,岡田農林株式会社 第 35 支店
2991622,千葉県,富津市,萩生,35.1978308,139.83231297,山本保険株式会社 第 52 支店
8618034,熊本県,熊本市東区,八反田,32.81838937,130.76497475,有限会社井上鉱業 第 89 支店
4910866,愛知県,一宮市,城崎通,35.30002866,136.81060286,渡辺銀行合同会社 第 40 支店
5090257,岐阜県,可児市,長坂,35.39342184,137.00534315,合同会社坂本水産 第 12 支店
5013246,岐阜県,関市,緑ケ丘,35.49121632,136.90226406,小林食品合同会社 第 53 支店
9600445,福島県,伊達市,神明前,37.81494509,140.49349684,株式会社藤原水産 第 67 支店
281133,岩手県,上閉伊郡大槌町,金沢,39.4631847,141.77348098,木村印刷合同会社 第 58 支店
2995235,千葉県,勝浦市,出水,35.15283819,140.31718487,佐藤情報合同会社 第 3 支店
6068362,京都府,京都市左京区,法皇寺町,35.01037963,135.77705422,株式会社木村水産 第 25 支店
9890233,宮城県,白石市,小原,37.95690058,140.53041611,有限会社伊藤ガス 第 21 支店
9490544,新潟県,糸魚川市,梶山,36.92240773,137.94505656,山田ガス株式会社 第 95 支店
3230021,栃木県,小山市,稲葉郷,36.33066935,139.81038296,有限会社渡辺情報 第 47 支店
7080064,岡山県,津山市,堺町,35.05842517,134.00132774,有限会社山口運輸 第 59 支店
490454,北海道,上磯郡木古内町,瓜谷,41.69944082,140.37636997,合同会社高橋銀行 第 12 支店
4670874,愛知県,名古屋市瑞穂区,太田町,35.13762888,136.92206713,坂本保険株式会社 第 76 支店
4640808,愛知県,名古屋市千種区,星が丘山手,35.16207846,136.980288,有限会社中村情報 第 40 支店
9591812,新潟県,五泉市,水島町,37.7511748,139.17758407,田中食品合同会社 第 59 支店
6200835,京都府,福知山市,後正寺,35.25204963,135.17965532,株式会社中島建設 第 98 支店
6471101,和歌山県,新宮市,高田,33.72985149,135.90380589,有限会社藤田電気 第 79 支店
4750825,愛知県,半田市,前潟町,34.87912391,136.92923458,株式会社森運輸 第 55 支店
6360821,奈良県,生駒郡三郷町,立野北,34.59412972,135.68654383,株式会社阿部農林 第 10 支店
8220013,福岡県,直方市,溝堀,33.73627517,130.72965169,高橋建設有限会社 第 18 支店
2300078,神奈川県,横浜市鶴見区,岸谷,35.49750108,139.66558682,合同会社山口印刷 第 30 支店
8471108,佐賀県,唐津市,七山白木,33.4558058,130.08841445,中島ガス有限会社 第 79 支店
9998206,山形県,酒田市,上黒川,38.99956115,139.99466336,吉田建設株式会社 第 77 支店
8796113,大分県,竹田市,荻町恵良原,32.92881824,131.31760264,小林保険株式会社 第 92 支店
9101143,福井県,吉田郡永平寺町,松岡渡新田,36.10543834,136.27551417,吉田鉱業有限会社 第 27 支店
6018382,京都府,京都市南区,吉祥院石原上川原町,34.96847684,135.7255964,森食品株式会社 第 38 支店
802473,北海道,帯広市,西二十三条南,42.91140019,143.12820261,有限会社森銀行 第 26 支店
611372,北海道,恵庭市,恵み野南,42.90140111,141.58580062,株式会社小川情報 第 85 支店
7294308,広島県,三次市,三良坂町田利,34.79020556,132.96151124,佐藤運輸有限会社 第 69 支店
9102343,福井県,福井市,南西俣町,35.97977662,136.42865087,鈴木水産株式会社 第 11 支店
9500014,新潟県,新潟市東区,松崎,37.93356144,139.11472999,株式会社石井ガス 第 65 支店
7093101,岡山県,岡山市北区,建部町鶴田,34.91989832,133.85160546,中村運輸合同会社 第 81 支店
3960401,長野県,伊那市,長谷非持,35.81496535,138.10489109,有限会社吉田運輸 第 17 支店
6696832,兵庫県,美方郡新温泉町,飯野,35.5354922,134.46797753,鈴木水産有限会社 第 4 支店
7860076,高知県,高岡郡四万十町,寺野,33.22072023,133.07695561,合同会社斎藤鉱業 第 65 支店
5152522,三重県,津市,一志町波瀬,34.60693619,136.38466869,合同会社高橋保険 第 48 支店
4560076,愛知県,名古屋市熱田区,切戸町,35.13660199,136.88719992,中村運輸有限会社 第 88 支店
5920002,大阪府,高石市,羽衣公園丁,34.53315269,135.43759651,後藤印刷株式会社 第 9 支店
4838021,愛知県,江南市,和田町小島,35.36027237,136.89195568,合同会社清水水産 第 58 支店
6470042,和歌山県,新宮市,下田,33.71788176,135.99305577,株式会社渡辺情報 第 10 支店
7800066,高知県,高知市,比島町,33.57067947,133.55062628,木村電気合同会社 第 98 支店
170042,秋田県,大館市,観音堂,40.28096449,140.57745378,合同会社山崎建設 第 61 支店
28021,北海道,札幌市北区,篠路一条,43.13897401,141.36099342,田中ガス有限会社 第 28 支店
2900215,千葉県,市原市,土宇,35.43428884,140.13670744,合同会社田中食品 第 46 支店
7711202,徳島県,板野郡藍住町,奥野（前川）,34.12377216,134.49527607,渡辺農林株式会社 第 29 支店
9693284,福島県,耶麻郡猪苗代町,三ツ和,37.54520896,140.06905065,合同会社井上銀行 第 88 支店
9392464,富山県,富山市,八尾町竹ノ内,36.56980333,137.10706608,合同会社岡本保険 第 65 支店
9390341,富山県,射水市,三ケ（白銀町）,36.72018228,137.08513474,株式会社前田印刷 第 98 支店
9920582,山形県,南陽市,荻,38.15722321,140.16938448,鈴木保険有限会社 第 43 支店
3113417,茨城県,小美玉市,倉数,36.15095258,140.41654406,佐藤建設有限会社 第 87 支店
3700704,群馬県,邑楽郡明和町,斗合田,36.21281232,139.58401316,株式会社岡本ガス 第 67 支店
